{"type":"FeatureCollection","features":[{"type":"Feature","properties":{"dayId":1,"legId":"B-D1-flight","mode":"flight","label":"武汉天河 → 海口美兰","distanceKm":null,"durationMinutes":null,"durationHours":null,"routeLegs":[],"source":"Verified endpoints, connected by declared travel mode"},"geometry":{"type":"LineString","coordinates":[[114.2171149,30.7756632],[110.4592869,19.9442567]]}},{"type":"Feature","properties":{"dayId":1,"legId":"B-D1-drive","mode":"drive","label":"海口美兰 → 西海岸假日","distanceKm":34.5,"durationMinutes":26,"durationHours":0.4,"routeLegs":[{"index":0,"distanceKm":34.5,"durationMinutes":26}],"source":"OSRM / OpenStreetMap, fetched 2026-08-12"},"geometry":{"type":"LineString","coordinates":[[110.4592869,19.9442567],[110.458774,19.944082],[110.458365,19.944126],[110.45807,19.944133],[110.457801,19.944114],[110.457509,19.944076],[110.456217,19.943851],[110.45596,19.943818],[110.455669,19.94381],[110.453824,19.943797],[110.452423,19.943846],[110.452064,19.943851],[110.451872,19.943849],[110.451549,19.943846],[110.451198,19.943842],[110.450413,19.94384],[110.450187,19.943839],[110.44956,19.943837],[110.449079,19.94384],[110.448845,19.943841],[110.44734,19.94385],[110.447101,19.943866],[110.445203,19.943871],[110.439202,19.943839],[110.438499,19.943868],[110.438274,19.943908],[110.438045,19.943967],[110.43755,19.944112],[110.437207,19.94424],[110.436883,19.944382],[110.436601,19.944525],[110.436337,19.944674],[110.436098,19.944836],[110.435817,19.94504],[110.435492,19.945332],[110.435247,19.945573],[110.43506,19.945781],[110.434887,19.945998],[110.434569,19.946474],[110.43445,19.946684],[110.434344,19.946888],[110.434204,19.947195],[110.434087,19.947528],[110.433889,19.948194],[110.433788,19.948551],[110.43371,19.948822],[110.433498,19.949661],[110.431482,19.957455],[110.431338,19.958012],[110.431173,19.958649],[110.429749,19.964116],[110.429381,19.965485],[110.429085,19.966444],[110.428859,19.967067],[110.427946,19.969487],[110.427838,19.969721],[110.427628,19.970131],[110.427603,19.970167],[110.427406,19.970437],[110.427231,19.97059],[110.427029,19.970724],[110.426556,19.970962],[110.426336,19.971075],[110.424209,19.972215],[110.4237,19.972474],[110.422058,19.97331],[110.421692,19.973455],[110.421165,19.973572],[110.42101,19.973596],[110.420746,19.973625],[110.420296,19.973614],[110.420009,19.973596],[110.418983,19.97353],[110.415408,19.97328],[110.40797,19.972784],[110.407638,19.972758],[110.406269,19.972661],[110.405928,19.972642],[110.405794,19.972635],[110.405458,19.972616],[110.403742,19.97252],[110.403435,19.972503],[110.403026,19.972482],[110.402606,19.972468],[110.402303,19.972459],[110.401922,19.972446],[110.401814,19.97244],[110.401414,19.972418],[110.396433,19.972149],[110.396261,19.972139],[110.396225,19.972137],[110.39617,19.972134],[110.395851,19.972117],[110.395418,19.972094],[110.395382,19.972092],[110.395297,19.972087],[110.393549,19.971997],[110.392813,19.971892],[110.392528,19.971855],[110.391889,19.971771],[110.387328,19.971132],[110.386874,19.971086],[110.386796,19.971083],[110.386385,19.971052],[110.385446,19.97105],[110.383555,19.971065],[110.381984,19.971091],[110.381631,19.971147],[110.381284,19.971222],[110.381002,19.971326],[110.380892,19.971366],[110.380508,19.971585],[110.380141,19.97189],[110.379842,19.972232],[110.379605,19.972637],[110.379444,19.97309],[110.379344,19.973604],[110.37922,19.974358],[110.379145,19.974788],[110.379128,19.974886],[110.378998,19.975637],[110.378901,19.976211],[110.378789,19.976871],[110.378724,19.977271],[110.37864,19.977665],[110.378591,19.977824],[110.378567,19.977902],[110.378503,19.978044],[110.378321,19.978382],[110.378161,19.978652],[110.377524,19.979722],[110.37706,19.98053],[110.376905,19.980801],[110.37683,19.980926],[110.376725,19.981105],[110.376597,19.98104],[110.376197,19.980843],[110.37597,19.980731],[110.375558,19.980578],[110.375142,19.980491],[110.374708,19.98042],[110.374229,19.980405],[110.372979,19.980407],[110.371668,19.980413],[110.371198,19.980388],[110.368635,19.980364],[110.367515,19.980362],[110.367275,19.980362],[110.365306,19.980358],[110.363618,19.980372],[110.362168,19.980383],[110.361209,19.980391],[110.359184,19.980396],[110.35755,19.980387],[110.357459,19.980386],[110.357366,19.980385],[110.355835,19.98039],[110.352596,19.980393],[110.349483,19.9804],[110.347693,19.980405],[110.346121,19.980408],[110.344502,19.980422],[110.344347,19.980433],[110.343889,19.980444],[110.342508,19.980525],[110.340395,19.980655],[110.339301,19.980708],[110.339111,19.980717],[110.338584,19.980757],[110.338467,19.980765],[110.338243,19.98076],[110.338147,19.980755],[110.337489,19.980704],[110.337445,19.9807],[110.334878,19.980543],[110.33342,19.980419],[110.332305,19.980251],[110.332246,19.980242],[110.332224,19.980239],[110.327528,19.979528],[110.327447,19.979515],[110.321743,19.978605],[110.319629,19.978296],[110.318935,19.978194],[110.318823,19.978179],[110.318242,19.978179],[110.317567,19.978181],[110.310439,19.97816],[110.310194,19.978159],[110.309958,19.97816],[110.307646,19.978165],[110.305356,19.978163],[110.29979,19.978209],[110.299734,19.978209],[110.299716,19.978209],[110.298372,19.978208],[110.290179,19.978157],[110.29018,19.978282],[110.29019,19.979401],[110.29019,19.979821],[110.290189,19.980147],[110.290185,19.981501],[110.29018,19.983223],[110.29018,19.983268],[110.290181,19.983386],[110.290184,19.983553],[110.290176,19.988272],[110.290175,19.988546],[110.290172,19.991156],[110.29017,19.992707],[110.29017,19.993591],[110.29017,19.993658],[110.290169,19.99761],[110.290163,19.997833],[110.290166,19.99982],[110.290169,20.001403],[110.29017,20.001883],[110.290164,20.002799],[110.290174,20.003142],[110.290176,20.003326],[110.290176,20.003402],[110.29018,20.003556],[110.290183,20.003829],[110.29018,20.005264],[110.290175,20.00726],[110.290176,20.007708],[110.29019,20.008837],[110.290195,20.009274],[110.290195,20.009341],[110.290193,20.011294],[110.290196,20.012195],[110.290193,20.012353],[110.290197,20.012853],[110.29019,20.014405],[110.290193,20.014855],[110.290189,20.015727],[110.290188,20.01581],[110.29017,20.016478],[110.290163,20.017535],[110.290173,20.018166],[110.29017,20.018577],[110.290202,20.019045],[110.290202,20.019083],[110.290177,20.020248],[110.290174,20.0204],[110.290186,20.02135],[110.290191,20.022092],[110.290166,20.023012],[110.290165,20.023153],[110.290152,20.023297],[110.290095,20.02328],[110.290006,20.023258],[110.289768,20.023201],[110.288654,20.022928],[110.286299,20.022331],[110.285898,20.022191],[110.285546,20.022029],[110.284649,20.021581],[110.283983,20.021279],[110.283836,20.021213],[110.283726,20.021163],[110.283669,20.021138],[110.283252,20.020985],[110.282834,20.020873],[110.2822,20.020798],[110.281586,20.020863],[110.281033,20.020976],[110.280509,20.021132],[110.280384,20.021175],[110.2803,20.021208],[110.280237,20.021233],[110.279991,20.021312],[110.279917,20.021338],[110.278389,20.021847],[110.278291,20.021874],[110.27814,20.021909],[110.277174,20.022105],[110.27615,20.022309],[110.275943,20.022347],[110.274634,20.022614],[110.273372,20.02287],[110.272085,20.023157],[110.271443,20.023326],[110.270804,20.023516],[110.27055,20.023587],[110.270445,20.023622],[110.270291,20.023674],[110.268178,20.024376],[110.267758,20.024518],[110.267527,20.024604],[110.266893,20.02483],[110.266001,20.025072],[110.264827,20.025182],[110.262127,20.025232],[110.261956,20.025236],[110.260518,20.025262],[110.259529,20.025373],[110.258652,20.025579],[110.258485,20.025625],[110.258395,20.025656],[110.257906,20.02588],[110.257462,20.026084],[110.255298,20.027194],[110.254688,20.027508],[110.254325,20.027694],[110.252976,20.028386],[110.252138,20.028838],[110.251254,20.029244],[110.250314,20.029612],[110.25023,20.029644],[110.24654,20.030977],[110.245114,20.031466],[110.242986,20.032264],[110.242835,20.03232],[110.241758,20.032824],[110.239418,20.034216],[110.23662,20.035967],[110.235128,20.036917],[110.234989,20.037006],[110.233734,20.037805],[110.22619,20.04272],[110.22526,20.043398],[110.223843,20.044467],[110.222608,20.045413],[110.222139,20.045773],[110.220841,20.046747],[110.216279,20.050166],[110.216173,20.050052],[110.216681,20.049293]]}},{"type":"Feature","properties":{"dayId":1,"legId":"B-D1-walk","mode":"walk","label":"西海岸假日 → 西海岸 → 西海岸假日","distanceKm":1.4,"durationMinutes":24,"durationHours":0.4,"routeLegs":[],"source":"Verified endpoints, connected by declared travel mode"},"geometry":{"type":"LineString","coordinates":[[110.216681,20.049293],[110.1892,20.0591],[110.216681,20.049293]]}},{"type":"Feature","properties":{"dayId":2,"legId":"B-D2-drive","mode":"drive","label":"海口西海岸 → 万宁神州半岛假日","distanceKm":181.5,"durationMinutes":133,"durationHours":2.2,"routeLegs":[{"index":0,"distanceKm":181.5,"durationMinutes":133}],"source":"OSRM / OpenStreetMap, fetched 2026-08-12"},"geometry":{"type":"LineString","coordinates":[[110.216681,20.049293],[110.220725,20.046609],[110.222028,20.045655],[110.225168,20.043285],[110.226082,20.042617],[110.233657,20.037672],[110.234905,20.036897],[110.235047,20.036809],[110.236514,20.035877],[110.23933,20.034101],[110.240765,20.033237],[110.242001,20.032527],[110.242676,20.03219],[110.242758,20.03216],[110.242918,20.032103],[110.24504,20.031337],[110.24648,20.030829],[110.2481,20.030267],[110.250159,20.029512],[110.250183,20.029501],[110.251001,20.029185],[110.252018,20.028737],[110.252989,20.02824],[110.254252,20.027568],[110.254611,20.027376],[110.255225,20.027068],[110.257393,20.025955],[110.258317,20.025515],[110.258423,20.025478],[110.258651,20.025417],[110.259109,20.025286],[110.259505,20.025207],[110.259971,20.025143],[110.260409,20.025112],[110.260524,20.025104],[110.261956,20.025076],[110.262125,20.025073],[110.264842,20.025021],[110.265253,20.025006],[110.265617,20.024973],[110.26595,20.024922],[110.26612,20.024897],[110.266211,20.024875],[110.266639,20.024761],[110.267027,20.024637],[110.267548,20.024455],[110.267732,20.024394],[110.268168,20.024268],[110.270239,20.023539],[110.270527,20.02344],[110.270814,20.023359],[110.271396,20.023185],[110.271723,20.023102],[110.272107,20.023004],[110.272537,20.022913],[110.273341,20.022742],[110.275726,20.022263],[110.275918,20.022225],[110.276199,20.022172],[110.277063,20.021989],[110.277776,20.021838],[110.278278,20.021735],[110.278381,20.021698],[110.279035,20.021463],[110.279399,20.021348],[110.279547,20.021298],[110.279859,20.021196],[110.280863,20.020892],[110.281009,20.020854],[110.281497,20.020747],[110.281564,20.020734],[110.2822,20.020666],[110.282852,20.020744],[110.283104,20.020799],[110.283163,20.020812],[110.283435,20.020893],[110.283439,20.020894],[110.283513,20.020923],[110.283724,20.021003],[110.283891,20.021067],[110.284035,20.021122],[110.284291,20.02123],[110.284684,20.021442],[110.285606,20.021929],[110.286142,20.022133],[110.286665,20.022289],[110.288231,20.02266],[110.288597,20.022747],[110.28991,20.02309],[110.290031,20.02312],[110.290035,20.022999],[110.290018,20.022348],[110.290009,20.021009],[110.290011,20.020244],[110.290014,20.019124],[110.290014,20.019079],[110.290019,20.018301],[110.290033,20.017339],[110.290049,20.0166],[110.290054,20.016384],[110.290074,20.01561],[110.290059,20.014869],[110.290061,20.014561],[110.290068,20.014211],[110.290056,20.01355],[110.290034,20.012574],[110.290028,20.012344],[110.290019,20.01219],[110.290025,20.010582],[110.290025,20.010107],[110.29004,20.009502],[110.290038,20.009342],[110.290037,20.009274],[110.290038,20.008893],[110.290039,20.007638],[110.29004,20.007188],[110.290044,20.005262],[110.290048,20.003796],[110.290049,20.00354],[110.290041,20.003405],[110.290038,20.003327],[110.290026,20.002801],[110.290023,20.001977],[110.290005,20.000466],[110.289969,19.997852],[110.289962,19.997619],[110.289989,19.995401],[110.28999,19.99535],[110.28999,19.995333],[110.290008,19.993654],[110.290008,19.993566],[110.290018,19.993072],[110.290011,19.991153],[110.290013,19.989188],[110.290012,19.988272],[110.29001,19.986961],[110.290006,19.983547],[110.290006,19.983417],[110.290005,19.983313],[110.290005,19.983207],[110.290024,19.9809],[110.290029,19.978282],[110.290029,19.978157],[110.290027,19.977989],[110.290182,19.977989],[110.290357,19.977981],[110.291217,19.977983],[110.292724,19.977985],[110.295385,19.977988],[110.298376,19.977988],[110.299042,19.977992],[110.29973,19.977993],[110.299783,19.977993],[110.300117,19.977993],[110.302215,19.977991],[110.30515,19.977988],[110.305355,19.977988],[110.307644,19.977982],[110.309956,19.978],[110.310186,19.977999],[110.310434,19.978002],[110.317573,19.978002],[110.318839,19.978008],[110.318954,19.978018],[110.321764,19.978434],[110.32356,19.978732],[110.32601,19.979104],[110.326799,19.979224],[110.327447,19.979338],[110.327528,19.979352],[110.33139,19.979936],[110.332223,19.98005],[110.332303,19.980061],[110.333454,19.980234],[110.33491,19.980364],[110.337474,19.980545],[110.338255,19.980596],[110.338489,19.980594],[110.339092,19.980558],[110.342496,19.980336],[110.343868,19.980247],[110.344356,19.980222],[110.344497,19.98022],[110.346123,19.980218],[110.347684,19.980214],[110.350762,19.980209],[110.352587,19.980207],[110.353966,19.980208],[110.355823,19.98021],[110.35655,19.98021],[110.357459,19.980226],[110.35755,19.980227],[110.359193,19.980211],[110.361219,19.980198],[110.362163,19.9802],[110.363216,19.980202],[110.363613,19.980203],[110.364444,19.980138],[110.364808,19.980112],[110.364984,19.980064],[110.365245,19.979967],[110.365455,19.979847],[110.366981,19.978418],[110.367066,19.978256],[110.367148,19.97805],[110.367184,19.977876],[110.367297,19.976305],[110.367394,19.974788],[110.367433,19.974028],[110.36741,19.973667],[110.367362,19.973312],[110.367301,19.972968],[110.367219,19.972605],[110.367124,19.972248],[110.366902,19.97154],[110.36636,19.969997],[110.365944,19.968854],[110.363922,19.963235],[110.363099,19.960967],[110.362303,19.958697],[110.361657,19.956906],[110.361347,19.956037],[110.361174,19.955565],[110.360492,19.953678],[110.359829,19.951787],[110.359434,19.950563],[110.359205,19.949764],[110.35894,19.94874],[110.358753,19.947948],[110.358531,19.946802],[110.358355,19.945696],[110.358201,19.944503],[110.358092,19.943154],[110.357977,19.94121],[110.357907,19.93997],[110.357827,19.938594],[110.357738,19.937178],[110.357624,19.935193],[110.357476,19.932242],[110.357382,19.931304],[110.357317,19.930104],[110.357265,19.929127],[110.357224,19.928255],[110.357139,19.926787],[110.357108,19.925959],[110.356949,19.923497],[110.356859,19.922386],[110.356713,19.92124],[110.356457,19.919731],[110.356335,19.919169],[110.356159,19.918364],[110.355833,19.916887],[110.354125,19.909523],[110.353852,19.908303],[110.35363,19.907138],[110.353407,19.905871],[110.353242,19.904604],[110.352969,19.901731],[110.352485,19.896795],[110.352128,19.893148],[110.351938,19.891131],[110.351318,19.88456],[110.351287,19.884297],[110.351165,19.883054],[110.351098,19.882031],[110.351055,19.881],[110.351062,19.878899],[110.351076,19.878378],[110.351122,19.877856],[110.351159,19.877316],[110.351232,19.876511],[110.351323,19.875713],[110.351701,19.8721],[110.35245,19.865266],[110.352853,19.861199],[110.352881,19.86088],[110.353044,19.858487],[110.35325,19.855634],[110.353331,19.854348],[110.353539,19.851408],[110.353641,19.849659],[110.353769,19.84791],[110.353907,19.845535],[110.354081,19.843156],[110.354469,19.838395],[110.35504,19.832518],[110.355591,19.826659],[110.35566,19.825898],[110.355694,19.825591],[110.355804,19.824531],[110.356012,19.822686],[110.356263,19.820658],[110.356754,19.816781],[110.357736,19.809027],[110.357791,19.808626],[110.358085,19.806226],[110.358257,19.804294],[110.358367,19.800462],[110.358528,19.794048],[110.358561,19.790842],[110.358574,19.790251],[110.358594,19.789532],[110.358689,19.78726],[110.358721,19.786803],[110.358865,19.784918],[110.359223,19.780786],[110.35928,19.780133],[110.359355,19.779107],[110.359375,19.778809],[110.359536,19.776742],[110.359542,19.776653],[110.359888,19.7731],[110.36036,19.770324],[110.360846,19.767654],[110.361874,19.762218],[110.361968,19.761689],[110.362314,19.759781],[110.362629,19.757332],[110.362884,19.754736],[110.363361,19.749591],[110.363863,19.744017],[110.363897,19.743609],[110.364201,19.740316],[110.364229,19.739914],[110.364292,19.738993],[110.364298,19.73858],[110.364238,19.737598],[110.36383,19.735711],[110.363767,19.735407],[110.363366,19.733585],[110.363277,19.733212],[110.362828,19.731163],[110.36275,19.730785],[110.361657,19.725977],[110.361502,19.725186],[110.361302,19.723854],[110.36118,19.722222],[110.361095,19.720552],[110.361016,19.719231],[110.360947,19.717878],[110.360822,19.715128],[110.360766,19.713731],[110.360646,19.711637],[110.36064,19.711374],[110.36055,19.709903],[110.360409,19.708588],[110.359925,19.705113],[110.359714,19.7037],[110.359651,19.703251],[110.359494,19.70213],[110.359159,19.69955],[110.358932,19.697144],[110.358717,19.694292],[110.358718,19.692854],[110.358745,19.691001],[110.358763,19.690466],[110.358783,19.689687],[110.358788,19.689451],[110.358841,19.687357],[110.358886,19.686257],[110.358871,19.684902],[110.358894,19.684036],[110.35902,19.680906],[110.359116,19.679744],[110.359198,19.679013],[110.359263,19.678548],[110.359345,19.677967],[110.35952,19.676873],[110.359696,19.675727],[110.360065,19.67341],[110.360791,19.668809],[110.362262,19.659627],[110.36277,19.657204],[110.363311,19.654762],[110.363992,19.651762],[110.364411,19.649915],[110.365942,19.643137],[110.366583,19.640299],[110.366995,19.638247],[110.367345,19.636101],[110.367618,19.634147],[110.367922,19.632253],[110.368073,19.631192],[110.368195,19.630352],[110.368415,19.628845],[110.368821,19.626169],[110.368919,19.625533],[110.369272,19.623229],[110.36947,19.621818],[110.369588,19.621141],[110.369727,19.620412],[110.370084,19.619203],[110.370305,19.618608],[110.37055,19.618014],[110.371149,19.616755],[110.376087,19.606763],[110.3761,19.606734],[110.378877,19.6011],[110.380286,19.598234],[110.381602,19.595303],[110.383214,19.591557],[110.383473,19.590946],[110.384428,19.588683],[110.386024,19.584949],[110.387791,19.58081],[110.388924,19.578176],[110.389046,19.577894],[110.389163,19.577621],[110.390628,19.574173],[110.390946,19.573427],[110.392303,19.570249],[110.39294,19.568657],[110.393243,19.567726],[110.393385,19.567226],[110.393471,19.56688],[110.393597,19.566251],[110.393699,19.565661],[110.393824,19.564288],[110.394223,19.55805],[110.394326,19.556795],[110.394547,19.55208],[110.394566,19.551579],[110.394651,19.549663],[110.394681,19.548704],[110.39472,19.547487],[110.394815,19.545461],[110.39484,19.545052],[110.394898,19.544497],[110.395077,19.543702],[110.395282,19.543044],[110.395515,19.542386],[110.396523,19.540232],[110.396731,19.539803],[110.397034,19.539171],[110.397282,19.538646],[110.397535,19.538107],[110.397869,19.537359],[110.398122,19.536577],[110.398223,19.53613],[110.398294,19.535674],[110.398419,19.534137],[110.398622,19.531687],[110.398745,19.530889],[110.398873,19.530301],[110.399161,19.529422],[110.399322,19.529009],[110.399547,19.52853],[110.400603,19.526443],[110.401651,19.524355],[110.402919,19.521868],[110.403324,19.52109],[110.403563,19.520643],[110.403833,19.52023],[110.406552,19.516479],[110.407411,19.515353],[110.40806,19.514509],[110.408852,19.513518],[110.409688,19.512544],[110.417527,19.504041],[110.417949,19.503532],[110.418124,19.503304],[110.418265,19.503122],[110.418587,19.502665],[110.421534,19.497254],[110.423008,19.49451],[110.423773,19.493129],[110.424111,19.492502],[110.424539,19.491902],[110.424665,19.491747],[110.424917,19.491474],[110.425348,19.491047],[110.425914,19.490585],[110.426524,19.490138],[110.427783,19.489285],[110.430255,19.487542],[110.431515,19.486664],[110.432369,19.486032],[110.432727,19.485754],[110.433205,19.485292],[110.433689,19.484752],[110.434228,19.483991],[110.434675,19.483133],[110.434864,19.482616],[110.435055,19.482056],[110.43521,19.481199],[110.435255,19.480335],[110.435152,19.47845],[110.434942,19.475792],[110.434892,19.47498],[110.434877,19.474151],[110.434983,19.47314],[110.435189,19.472207],[110.435495,19.47132],[110.435902,19.470441],[110.436716,19.468859],[110.437372,19.467597],[110.438341,19.465684],[110.438728,19.464888],[110.438917,19.464445],[110.439443,19.463184],[110.439875,19.46205],[110.440391,19.460478],[110.440795,19.459006],[110.441229,19.457144],[110.441738,19.454845],[110.44195,19.453835],[110.44209,19.452969],[110.442635,19.450714],[110.44273,19.450312],[110.443112,19.448694],[110.443239,19.448097],[110.444135,19.444008],[110.444591,19.441713],[110.444947,19.439362],[110.445133,19.437647],[110.445199,19.436822],[110.445208,19.436705],[110.445271,19.435917],[110.445417,19.432119],[110.445564,19.428319],[110.445692,19.426713],[110.445866,19.425107],[110.446446,19.421525],[110.44741,19.417524],[110.448536,19.413534],[110.449429,19.41034],[110.450066,19.408054],[110.450571,19.406288],[110.451307,19.403619],[110.452224,19.400411],[110.452532,19.39921],[110.452554,19.399124],[110.452916,19.397715],[110.453102,19.396806],[110.453404,19.395088],[110.453648,19.393327],[110.453748,19.392434],[110.453832,19.391246],[110.45391,19.390081],[110.45394,19.387952],[110.453811,19.383362],[110.453744,19.380238],[110.453838,19.378327],[110.454019,19.376425],[110.454622,19.371771],[110.455009,19.368902],[110.455225,19.367134],[110.455337,19.366032],[110.455403,19.36447],[110.455381,19.362769],[110.455368,19.362294],[110.455302,19.36135],[110.455035,19.359437],[110.454343,19.356497],[110.4537,19.354612],[110.452975,19.352741],[110.451486,19.348998],[110.450413,19.346289],[110.449964,19.345011],[110.449691,19.343845],[110.449485,19.3427],[110.449394,19.341373],[110.449542,19.339048],[110.449982,19.337112],[110.450698,19.335152],[110.451544,19.332967],[110.451893,19.331795],[110.452195,19.3306],[110.453066,19.325752],[110.453427,19.323691],[110.453659,19.322372],[110.453813,19.321546],[110.454293,19.319363],[110.454779,19.317945],[110.455215,19.316737],[110.455612,19.315835],[110.456333,19.314196],[110.45685,19.312947],[110.457166,19.312077],[110.45758,19.310703],[110.457861,19.309601],[110.458025,19.308715],[110.45819,19.307531],[110.458309,19.305732],[110.458365,19.303664],[110.458423,19.301448],[110.458463,19.299594],[110.458518,19.29773],[110.458498,19.296288],[110.458437,19.295685],[110.458319,19.294936],[110.458133,19.2942],[110.457748,19.293061],[110.457276,19.292064],[110.456846,19.291332],[110.456234,19.290476],[110.455616,19.28975],[110.454422,19.288496],[110.453605,19.287657],[110.450982,19.284906],[110.448264,19.282103],[110.446928,19.280688],[110.446262,19.279985],[110.445586,19.279291],[110.444715,19.2783],[110.444179,19.277593],[110.443928,19.277209],[110.44351,19.276465],[110.443265,19.275952],[110.442884,19.274953],[110.442653,19.274137],[110.442494,19.273365],[110.442226,19.271787],[110.44204,19.270897],[110.441812,19.270202],[110.441523,19.269424],[110.441195,19.268692],[110.440805,19.26803],[110.440371,19.267413],[110.439815,19.266709],[110.439312,19.266171],[110.438705,19.265574],[110.438059,19.265051],[110.437493,19.264565],[110.43513,19.262667],[110.434469,19.262049],[110.433792,19.261333],[110.433243,19.260674],[110.432752,19.260014],[110.432489,19.259661],[110.432231,19.259266],[110.431991,19.258839],[110.431755,19.2584],[110.431385,19.257615],[110.431021,19.256631],[110.430777,19.255766],[110.430553,19.254887],[110.430468,19.254487],[110.430394,19.253998],[110.430324,19.253043],[110.430302,19.252387],[110.430278,19.251512],[110.430295,19.250804],[110.430259,19.249997],[110.430276,19.249172],[110.430278,19.24683],[110.430269,19.245688],[110.430264,19.244517],[110.43024,19.2422],[110.430206,19.237248],[110.430159,19.236059],[110.430053,19.234872],[110.429659,19.232491],[110.428868,19.229109],[110.428157,19.225706],[110.427861,19.222757],[110.427853,19.220947],[110.427877,19.220031],[110.427955,19.219118],[110.428037,19.218048],[110.428214,19.216863],[110.42838,19.215737],[110.428615,19.214609],[110.429139,19.212797],[110.429802,19.210981],[110.430589,19.208991],[110.432129,19.205847],[110.432529,19.204734],[110.433189,19.202979],[110.435406,19.196272],[110.436536,19.192934],[110.437821,19.189625],[110.438537,19.188177],[110.43955,19.186305],[110.440413,19.184868],[110.441479,19.183221],[110.445336,19.178299],[110.448711,19.173909],[110.451057,19.170906],[110.452377,19.169038],[110.453152,19.167873],[110.453303,19.16763],[110.454157,19.166178],[110.455099,19.164545],[110.455915,19.162881],[110.457422,19.159787],[110.457547,19.159529],[110.458513,19.157573],[110.459193,19.156196],[110.460013,19.154526],[110.460879,19.152865],[110.461689,19.151442],[110.462565,19.150053],[110.463463,19.148745],[110.4644,19.147448],[110.465753,19.145767],[110.467158,19.144097],[110.46855,19.142443],[110.469859,19.140718],[110.470734,19.139368],[110.471268,19.138489],[110.47171,19.137645],[110.472121,19.136856],[110.472364,19.1363],[110.472707,19.135494],[110.473127,19.134426],[110.473607,19.133057],[110.474123,19.130865],[110.474394,19.129389],[110.474842,19.126676],[110.47543,19.123002],[110.475676,19.12187],[110.475955,19.120743],[110.477014,19.118183],[110.477658,19.116686],[110.477812,19.116251],[110.478166,19.115225],[110.478557,19.113716],[110.4787,19.112806],[110.478822,19.111888],[110.479017,19.110037],[110.479174,19.108512],[110.479337,19.106972],[110.479517,19.105856],[110.479799,19.104754],[110.480117,19.103866],[110.480489,19.102989],[110.480864,19.102258],[110.481676,19.100923],[110.482584,19.099601],[110.483479,19.098271],[110.483913,19.097603],[110.484319,19.096925],[110.484849,19.095852],[110.485294,19.094739],[110.485634,19.093591],[110.485897,19.092444],[110.486987,19.086781],[110.488144,19.081137],[110.48877,19.079492],[110.489086,19.07886],[110.489434,19.078236],[110.490032,19.077343],[110.490701,19.076476],[110.491504,19.075411],[110.492264,19.074309],[110.492714,19.073516],[110.49311,19.072668],[110.493446,19.071771],[110.49372,19.070846],[110.494013,19.069275],[110.494072,19.067972],[110.494053,19.066641],[110.493996,19.064016],[110.493943,19.061368],[110.493791,19.058731],[110.493549,19.057433],[110.493373,19.056833],[110.492543,19.054565],[110.491157,19.052433],[110.489558,19.049697],[110.489025,19.048489],[110.48878,19.047227],[110.488625,19.045385],[110.488571,19.044478],[110.488512,19.043798],[110.488424,19.04253],[110.488298,19.041045],[110.488278,19.040772],[110.488175,19.038871],[110.488208,19.037723],[110.488246,19.036657],[110.488306,19.035588],[110.488392,19.034564],[110.488492,19.03353],[110.48869,19.032214],[110.488927,19.030894],[110.489551,19.028401],[110.489957,19.027088],[110.490399,19.025771],[110.491643,19.022859],[110.492984,19.019978],[110.495607,19.014191],[110.496196,19.012366],[110.496416,19.011326],[110.4966,19.01028],[110.496687,19.009328],[110.496736,19.008374],[110.496714,19.007407],[110.496653,19.006429],[110.496384,19.004578],[110.495827,19.002514],[110.49503,19.000521],[110.491731,18.994529],[110.491296,18.993542],[110.490907,18.992543],[110.490257,18.990227],[110.4897,18.988121],[110.489362,18.987225],[110.488988,18.986331],[110.48836,18.985169],[110.487653,18.984041],[110.486519,18.982513],[110.485928,18.981739],[110.48534,18.980953],[110.484831,18.980228],[110.484326,18.979459],[110.483376,18.977923],[110.478902,18.970207],[110.478211,18.969057],[110.477653,18.968242],[110.477057,18.967446],[110.476158,18.966442],[110.475183,18.96551],[110.473036,18.963799],[110.470906,18.962198],[110.469873,18.961359],[110.468887,18.960461],[110.468072,18.959582],[110.467072,18.958358],[110.466052,18.956885],[110.465442,18.956008],[110.464675,18.95483],[110.464538,18.954618],[110.464386,18.954392],[110.464293,18.954245],[110.463472,18.953035],[110.463195,18.952623],[110.462628,18.951844],[110.461436,18.950353],[110.460969,18.949836],[110.459728,18.948489],[110.45848,18.947098],[110.457886,18.946398],[110.457296,18.945625],[110.456276,18.944022],[110.455374,18.942182],[110.454773,18.940686],[110.453709,18.937857],[110.453125,18.936661],[110.452468,18.93548],[110.451412,18.933831],[110.450353,18.932207],[110.449805,18.931216],[110.449393,18.930403],[110.448959,18.929348],[110.448696,18.928599],[110.448484,18.927888],[110.448294,18.927139],[110.447256,18.923083],[110.44691,18.922247],[110.446636,18.921641],[110.445928,18.920475],[110.445197,18.919451],[110.444902,18.919116],[110.444433,18.918586],[110.442803,18.91694],[110.442032,18.916163],[110.441335,18.915463],[110.440667,18.914748],[110.440306,18.914349],[110.439946,18.913897],[110.439637,18.913408],[110.439179,18.912573],[110.438837,18.911701],[110.438654,18.911194],[110.438539,18.910669],[110.43823,18.909489],[110.437641,18.907258],[110.437205,18.905923],[110.436658,18.904751],[110.436225,18.903982],[110.435535,18.903029],[110.435078,18.902463],[110.434376,18.901721],[110.433233,18.90073],[110.432037,18.89974],[110.430818,18.898724],[110.42973,18.897785],[110.429482,18.89756],[110.428918,18.896923],[110.427638,18.895473],[110.42616,18.893633],[110.42541,18.892722],[110.4245,18.891724],[110.423743,18.891068],[110.422805,18.890324],[110.421906,18.889701],[110.41998,18.888419],[110.419389,18.887986],[110.418835,18.887553],[110.417991,18.886842],[110.417323,18.886252],[110.41635,18.885325],[110.415606,18.884551],[110.414267,18.883157],[110.412513,18.881426],[110.411609,18.880595],[110.41055,18.87979],[110.40923,18.878791],[110.40827,18.878019],[110.40792,18.877693],[110.407306,18.877107],[110.406846,18.876624],[110.406629,18.876346],[110.40578,18.875166],[110.405248,18.874202],[110.404958,18.873589],[110.40472,18.872949],[110.404598,18.872682],[110.40448,18.872354],[110.403878,18.870533],[110.403299,18.86878],[110.402719,18.867381],[110.402341,18.866594],[110.402044,18.866019],[110.40172,18.865442],[110.40035,18.863147],[110.399325,18.861486],[110.39877,18.86062],[110.398273,18.859752],[110.397573,18.858432],[110.396982,18.857156],[110.396487,18.855879],[110.396099,18.854653],[110.39573,18.85326],[110.395484,18.851899],[110.395169,18.848994],[110.394987,18.847302],[110.394789,18.845503],[110.394426,18.842039],[110.394409,18.84189],[110.39432,18.841063],[110.394237,18.840364],[110.394166,18.839629],[110.394012,18.838197],[110.393928,18.837597],[110.393823,18.836938],[110.393685,18.836268],[110.393519,18.835621],[110.393152,18.834527],[110.392874,18.833909],[110.392592,18.833347],[110.392058,18.832366],[110.391866,18.832044],[110.391062,18.830988],[110.390461,18.830264],[110.389431,18.829272],[110.389291,18.829118],[110.387735,18.827757],[110.387038,18.827107],[110.386326,18.826428],[110.385374,18.825372],[110.384931,18.8248],[110.384775,18.824598],[110.384489,18.82421],[110.38389,18.823325],[110.383353,18.822503],[110.382565,18.821223],[110.381734,18.819932],[110.380734,18.818343],[110.37976,18.816836],[110.379011,18.815645],[110.378113,18.81422],[110.377651,18.813486],[110.377045,18.812532],[110.376508,18.811712],[110.375944,18.810869],[110.375364,18.810099],[110.374999,18.809642],[110.374656,18.809274],[110.374342,18.808926],[110.374043,18.808605],[110.373215,18.80783],[110.372537,18.807227],[110.371801,18.806702],[110.370599,18.805898],[110.369341,18.805171],[110.368269,18.804649],[110.367042,18.804141],[110.365487,18.803588],[110.363992,18.803056],[110.362779,18.802582],[110.361486,18.802018],[110.359727,18.801115],[110.358255,18.800221],[110.357916,18.799986],[110.357215,18.799511],[110.357171,18.799479],[110.356934,18.799303],[110.356557,18.799021],[110.355315,18.798277],[110.354758,18.797807],[110.354035,18.797483],[110.353494,18.79724],[110.355429,18.796972],[110.355627,18.796923],[110.355834,18.796897],[110.357866,18.796637],[110.357851,18.796542],[110.357146,18.791982],[110.356932,18.79051],[110.3569,18.790208],[110.356896,18.789987],[110.356957,18.789605],[110.356989,18.789489],[110.357033,18.789331],[110.357524,18.788294],[110.358107,18.787352],[110.358459,18.786606],[110.359351,18.784614],[110.359434,18.784429],[110.359985,18.783197],[110.361353,18.78035],[110.361699,18.779779],[110.362053,18.779296],[110.362419,18.778878],[110.362869,18.778411],[110.365041,18.776243],[110.366884,18.774328],[110.369723,18.771509],[110.370206,18.770958],[110.370516,18.770467],[110.370749,18.769992],[110.37082,18.769799],[110.370825,18.769784],[110.370846,18.769726],[110.37087,18.769663],[110.370966,18.769268],[110.371047,18.768798],[110.371071,18.768283],[110.371088,18.767541],[110.371095,18.767225],[110.371095,18.766376],[110.371111,18.765117],[110.371139,18.762346],[110.371169,18.760519],[110.371175,18.760118],[110.371207,18.75902],[110.371224,18.758654],[110.371284,18.758271],[110.371368,18.757901],[110.371533,18.757399],[110.371722,18.756952],[110.37206,18.756341],[110.3734,18.753964],[110.374463,18.752214],[110.374582,18.751981],[110.374777,18.751664],[110.374911,18.75148],[110.37512,18.751193],[110.375365,18.750913],[110.37553,18.75073],[110.376228,18.750088],[110.376442,18.749895],[110.377351,18.749056],[110.378663,18.747925],[110.380131,18.746649],[110.381929,18.745069],[110.383173,18.743967],[110.384382,18.742909],[110.385055,18.74233],[110.385408,18.741966],[110.385747,18.741583],[110.386339,18.740947],[110.386726,18.740244],[110.387368,18.7388],[110.387926,18.737494],[110.389717,18.733302],[110.392207,18.727335],[110.392543,18.726516],[110.392639,18.726278],[110.393174,18.724945],[110.393711,18.723817],[110.395224,18.720638],[110.396002,18.718989],[110.396263,18.718389],[110.397124,18.716474],[110.397339,18.715982],[110.39739,18.715805],[110.397489,18.715463],[110.397559,18.715044],[110.397598,18.714632],[110.397581,18.714063],[110.397462,18.713518],[110.39732,18.713062],[110.397228,18.712826],[110.397146,18.712618],[110.396861,18.71211],[110.394735,18.708999],[110.394344,18.708484],[110.39269,18.705756],[110.392513,18.705495],[110.391014,18.703196],[110.390459,18.702331],[110.390016,18.701641],[110.389573,18.70095],[110.389313,18.700566],[110.388947,18.700023],[110.388169,18.698856],[110.387507,18.697854],[110.386977,18.697252],[110.38622,18.69672],[110.385536,18.696432],[110.384721,18.696267],[110.383993,18.696228],[110.383312,18.696208],[110.382463,18.696093],[110.381893,18.695918],[110.380284,18.695253],[110.378036,18.694278],[110.376783,18.693836],[110.376081,18.693666],[110.375221,18.693581],[110.374081,18.693576],[110.373137,18.693566],[110.372425,18.693506],[110.370879,18.693126],[110.369122,18.692783],[110.366839,18.692419],[110.366201,18.692325],[110.365738,18.69224],[110.365334,18.692142],[110.36482,18.69205],[110.364097,18.691921],[110.363851,18.691823],[110.363645,18.69171],[110.363457,18.691593],[110.363252,18.691388],[110.363029,18.691086],[110.362381,18.689772],[110.361759,18.688434],[110.361592,18.687986],[110.360599,18.686878],[110.359851,18.686241],[110.360449,18.685678],[110.361243,18.685048],[110.362079,18.684438],[110.363534,18.683962],[110.365513,18.68391],[110.364418,18.683849],[110.363152,18.684011],[110.362702,18.684133],[110.362144,18.683442],[110.36165,18.682731],[110.361114,18.681857],[110.360577,18.681044],[110.361108,18.680208]]}},{"type":"Feature","properties":{"dayId":2,"legId":"B-D2-walk","mode":"walk","label":"万宁假日 → 神州半岛海岸 → 万宁假日","distanceKm":1.2,"durationMinutes":24,"durationHours":0.4,"routeLegs":[],"source":"Verified endpoints, connected by declared travel mode"},"geometry":{"type":"LineString","coordinates":[[110.361108,18.680208],[110.3479262,18.6779739],[110.361108,18.680208]]}},{"type":"Feature","properties":{"dayId":3,"legId":"B-D3-drive","mode":"drive","label":"万宁假日 → 兴隆热带植物园 → 兴隆市场 → 万宁假日","distanceKm":52.4,"durationMinutes":63,"durationHours":1.1,"routeLegs":[{"index":0,"distanceKm":25.9,"durationMinutes":31},{"index":1,"distanceKm":0.6,"durationMinutes":2},{"index":2,"distanceKm":25.9,"durationMinutes":30}],"source":"OSRM / OpenStreetMap, fetched 2026-08-12"},"geometry":{"type":"LineString","coordinates":[[110.361108,18.680208],[110.359826,18.680251],[110.358968,18.679722],[110.358045,18.679438],[110.357166,18.678909],[110.356651,18.678177],[110.355835,18.676877],[110.354681,18.675132],[110.353484,18.67594],[110.352825,18.67645],[110.352123,18.677032],[110.350824,18.675939],[110.350574,18.676124],[110.349877,18.676287],[110.349287,18.676246],[110.348698,18.675951],[110.348362,18.675881],[110.346895,18.67598],[110.34648,18.676025],[110.34568,18.676129],[110.34527,18.67632],[110.344677,18.676492],[110.343962,18.676426],[110.343455,18.676409],[110.34222,18.676614],[110.342079,18.676036],[110.341371,18.675936],[110.340579,18.675627],[110.339878,18.675574],[110.338696,18.67581],[110.337475,18.676128],[110.336738,18.676305],[110.333875,18.677161],[110.333199,18.677338],[110.332582,18.677511],[110.331866,18.677717],[110.331247,18.677857],[110.330773,18.677883],[110.330375,18.677842],[110.329728,18.677744],[110.329458,18.677729],[110.329373,18.67785],[110.329313,18.678101],[110.329164,18.678651],[110.329097,18.679422],[110.329095,18.680199],[110.329086,18.680583],[110.329113,18.680978],[110.329168,18.681843],[110.329201,18.682709],[110.32921,18.682962],[110.329247,18.683529],[110.329308,18.684037],[110.329454,18.68453],[110.329599,18.685054],[110.329659,18.685379],[110.329676,18.685806],[110.329637,18.68607],[110.329513,18.686688],[110.329363,18.687501],[110.329188,18.68852],[110.329039,18.68927],[110.328889,18.689869],[110.328771,18.690222],[110.328509,18.690788],[110.328095,18.691497],[110.327038,18.693062],[110.326619,18.693575],[110.32621,18.693992],[110.325403,18.694802],[110.324978,18.695305],[110.324734,18.695698],[110.324532,18.69612],[110.324399,18.696553],[110.324272,18.697851],[110.324192,18.698228],[110.324038,18.698575],[110.323815,18.698832],[110.323533,18.699073],[110.323125,18.699299],[110.319025,18.700914],[110.318595,18.701135],[110.318239,18.701367],[110.317947,18.701653],[110.317777,18.70196],[110.317639,18.702307],[110.317517,18.70283],[110.317522,18.703268],[110.317612,18.703811],[110.318048,18.706195],[110.318122,18.706779],[110.318117,18.708036],[110.318117,18.708504],[110.318228,18.708947],[110.318515,18.709857],[110.318998,18.711366],[110.319164,18.712137],[110.319147,18.712644],[110.319046,18.713006],[110.318966,18.713217],[110.31869,18.71369],[110.318388,18.713997],[110.318123,18.71417],[110.317984,18.714262],[110.317868,18.71432],[110.31747,18.714491],[110.310594,18.716587],[110.307303,18.71759],[110.306889,18.717749],[110.306526,18.717932],[110.306125,18.718226],[110.305779,18.718552],[110.305177,18.719107],[110.305074,18.719195],[110.304742,18.719414],[110.304345,18.719618],[110.30397,18.719757],[110.303755,18.719811],[110.303344,18.719916],[110.303204,18.719956],[110.303139,18.719971],[110.302706,18.720095],[110.302309,18.720208],[110.300314,18.720887],[110.299036,18.721306],[110.298917,18.721348],[110.298434,18.721511],[110.298207,18.721592],[110.297792,18.72174],[110.296905,18.722028],[110.29655,18.722143],[110.296421,18.722202],[110.296173,18.722293],[110.295986,18.722394],[110.295679,18.722589],[110.295259,18.722896],[110.293793,18.724235],[110.293708,18.724314],[110.293378,18.724542],[110.292796,18.724846],[110.292575,18.724962],[110.291977,18.725167],[110.291534,18.725256],[110.290886,18.725334],[110.290514,18.725334],[110.29014,18.725302],[110.290044,18.725294],[110.289957,18.725286],[110.289649,18.725239],[110.288975,18.725136],[110.287955,18.725006],[110.287445,18.724981],[110.286749,18.724999],[110.286311,18.725039],[110.283465,18.725433],[110.282097,18.725616],[110.28068,18.725805],[110.280135,18.72585],[110.279669,18.725867],[110.278954,18.725853],[110.278767,18.725836],[110.278206,18.725786],[110.277493,18.725688],[110.27638,18.725536],[110.276096,18.725503],[110.275873,18.725486],[110.275718,18.725481],[110.275067,18.725483],[110.274056,18.725682],[110.273198,18.725981],[110.273073,18.72605],[110.272576,18.726322],[110.271794,18.726883],[110.271339,18.727333],[110.270876,18.727899],[110.270438,18.728674],[110.269781,18.729845],[110.269502,18.730305],[110.268695,18.731209],[110.268094,18.731715],[110.26734,18.732215],[110.266723,18.732512],[110.26594,18.732789],[110.265285,18.732964],[110.264577,18.733063],[110.263918,18.733101],[110.263429,18.733089],[110.262828,18.733013],[110.261911,18.732756],[110.261471,18.732603],[110.261152,18.732492],[110.261026,18.73243],[110.260961,18.732398],[110.260323,18.732085],[110.259057,18.731491],[110.25785,18.730947],[110.256909,18.730556],[110.256531,18.730404],[110.256069,18.730244],[110.255544,18.730096],[110.255013,18.73003],[110.253073,18.729919],[110.252596,18.729853],[110.252046,18.729715],[110.251668,18.729583],[110.249868,18.728857],[110.249367,18.728671],[110.248827,18.728524],[110.248393,18.728455],[110.245552,18.728283],[110.24496,18.728232],[110.244498,18.728133],[110.243997,18.727963],[110.243549,18.727767],[110.243085,18.727511],[110.239861,18.725083],[110.238607,18.728639],[110.23509,18.73836],[110.232149,18.746776],[110.231079,18.749824],[110.230987,18.750098],[110.230949,18.750203],[110.229999,18.750133],[110.227563,18.749982],[110.223096,18.74971],[110.222926,18.7497],[110.222752,18.749689],[110.218339,18.749404],[110.217804,18.749376],[110.214926,18.749214],[110.21385,18.749146],[110.21102,18.74897],[110.210604,18.748944],[110.209297,18.74887],[110.207843,18.748772],[110.20714,18.74873],[110.206819,18.748728],[110.206678,18.748777],[110.206493,18.748935],[110.206387,18.748857],[110.205886,18.748486],[110.205644,18.748197],[110.205182,18.747348],[110.205119,18.747175],[110.205123,18.746919],[110.205257,18.745567],[110.205585,18.742252],[110.205614,18.741934],[110.205622,18.741837],[110.205606,18.741456],[110.205483,18.740912],[110.20527,18.740428],[110.204531,18.738958],[110.204185,18.738268],[110.204096,18.738102],[110.203949,18.737882],[110.203772,18.737661],[110.203603,18.737498],[110.203428,18.737331],[110.202693,18.736726],[110.201519,18.735614],[110.200852,18.735075],[110.198885,18.732734],[110.197929,18.731406],[110.196908,18.732373],[110.196565,18.732635],[110.195946,18.732911],[110.19559,18.732282],[110.195946,18.732911],[110.19628,18.732762],[110.196565,18.732635],[110.196398,18.732814],[110.195822,18.733355],[110.195765,18.733444],[110.195548,18.734003],[110.195462,18.734128],[110.195309,18.734211],[110.195044,18.734275],[110.194778,18.734338],[110.194526,18.73445],[110.194177,18.734608],[110.193577,18.73442],[110.194177,18.734608],[110.194526,18.73445],[110.194778,18.734338],[110.195044,18.734275],[110.195309,18.734211],[110.195309,18.734211],[110.195462,18.734128],[110.195548,18.734003],[110.195765,18.733444],[110.195822,18.733355],[110.196398,18.732814],[110.196565,18.732635],[110.196908,18.732373],[110.197929,18.731406],[110.198885,18.732734],[110.200852,18.735075],[110.201519,18.735614],[110.202693,18.736726],[110.203428,18.737331],[110.203603,18.737498],[110.203772,18.737661],[110.203949,18.737882],[110.204096,18.738102],[110.204185,18.738268],[110.204531,18.738958],[110.20527,18.740428],[110.205483,18.740912],[110.205606,18.741456],[110.205622,18.741837],[110.205614,18.741934],[110.205585,18.742252],[110.205257,18.745567],[110.205123,18.746919],[110.205119,18.747175],[110.205182,18.747348],[110.205644,18.748197],[110.205886,18.748486],[110.206387,18.748857],[110.206493,18.748935],[110.206678,18.748777],[110.206819,18.748728],[110.20714,18.74873],[110.207843,18.748772],[110.209297,18.74887],[110.210604,18.748944],[110.21102,18.74897],[110.21385,18.749146],[110.214926,18.749214],[110.217804,18.749376],[110.218339,18.749404],[110.222752,18.749689],[110.222926,18.7497],[110.223096,18.74971],[110.227563,18.749982],[110.229999,18.750133],[110.230949,18.750203],[110.230987,18.750098],[110.231079,18.749824],[110.232149,18.746776],[110.23509,18.73836],[110.238607,18.728639],[110.239861,18.725083],[110.239901,18.724964],[110.243149,18.727399],[110.243608,18.727653],[110.24405,18.727851],[110.244525,18.728008],[110.244973,18.72811],[110.245552,18.728161],[110.246564,18.728204],[110.248401,18.728321],[110.248822,18.728382],[110.249428,18.728542],[110.249943,18.728735],[110.251756,18.729474],[110.252086,18.729593],[110.252615,18.729728],[110.253073,18.729797],[110.255013,18.729896],[110.25557,18.729969],[110.25611,18.730102],[110.256525,18.730249],[110.25696,18.730404],[110.257947,18.730848],[110.259154,18.731392],[110.26042,18.731986],[110.261012,18.732277],[110.261076,18.732308],[110.261249,18.732393],[110.261989,18.732703],[110.262744,18.732876],[110.26287,18.732897],[110.263816,18.732929],[110.264451,18.732916],[110.265489,18.732759],[110.266157,18.732601],[110.267296,18.732067],[110.267987,18.731647],[110.268586,18.731174],[110.269545,18.729987],[110.269764,18.729627],[110.270108,18.728966],[110.270604,18.7281],[110.271111,18.727368],[110.27164,18.726837],[110.272522,18.7262],[110.272664,18.726101],[110.273879,18.72559],[110.274716,18.725397],[110.275715,18.725361],[110.276354,18.725397],[110.277233,18.725522],[110.278494,18.725692],[110.278781,18.725716],[110.278913,18.725727],[110.279332,18.725742],[110.280126,18.72573],[110.280809,18.725664],[110.282076,18.725494],[110.282237,18.725472],[110.283409,18.725311],[110.286416,18.724898],[110.286755,18.724871],[110.287354,18.724856],[110.28805,18.72489],[110.288084,18.724892],[110.289221,18.725039],[110.290159,18.725175],[110.2902,18.725181],[110.290646,18.725206],[110.29103,18.725195],[110.291546,18.725123],[110.292167,18.724973],[110.292736,18.724751],[110.293137,18.724542],[110.293622,18.724213],[110.293717,18.724147],[110.29543,18.722562],[110.295883,18.722325],[110.295943,18.722301],[110.296153,18.722219],[110.296297,18.72215],[110.296482,18.722088],[110.296521,18.722072],[110.296635,18.722032],[110.296845,18.721952],[110.297743,18.721667],[110.298227,18.721498],[110.298364,18.721448],[110.298699,18.721334],[110.298984,18.721235],[110.300253,18.720814],[110.302277,18.720126],[110.303118,18.719896],[110.303187,18.719878],[110.303322,18.719842],[110.303944,18.71968],[110.304306,18.719543],[110.304685,18.719355],[110.305021,18.719125],[110.30511,18.719052],[110.306072,18.718158],[110.306471,18.717865],[110.306854,18.717672],[110.307081,18.717589],[110.307298,18.717509],[110.307527,18.71744],[110.317423,18.714422],[110.317802,18.714259],[110.317943,18.714191],[110.318308,18.713931],[110.318599,18.713666],[110.318856,18.713261],[110.318996,18.712832],[110.319087,18.712234],[110.319012,18.711681],[110.318199,18.709209],[110.318099,18.708834],[110.318058,18.70854],[110.318034,18.708042],[110.318057,18.707112],[110.317995,18.706275],[110.317451,18.703395],[110.317405,18.702976],[110.317467,18.702595],[110.317569,18.702195],[110.317743,18.701816],[110.318,18.701463],[110.318342,18.701183],[110.318884,18.700874],[110.322808,18.699357],[110.323239,18.699153],[110.323588,18.698931],[110.323911,18.698583],[110.324146,18.698084],[110.324225,18.697194],[110.324305,18.69664],[110.324372,18.696236],[110.324592,18.695751],[110.324813,18.695376],[110.325266,18.694819],[110.32597,18.694132],[110.326379,18.693735],[110.326876,18.693156],[110.328062,18.691363],[110.328321,18.69093],[110.328615,18.69033],[110.328776,18.689904],[110.32889,18.689529],[110.329349,18.687038],[110.329576,18.685906],[110.329574,18.685576],[110.329567,18.68536],[110.329497,18.685047],[110.32937,18.684595],[110.329243,18.68406],[110.329169,18.683508],[110.329112,18.682857],[110.329092,18.682533],[110.329081,18.681986],[110.329019,18.680979],[110.329009,18.680579],[110.329012,18.680192],[110.329009,18.679486],[110.329043,18.678683],[110.329021,18.678308],[110.328995,18.677988],[110.328991,18.677825],[110.328934,18.67773],[110.328923,18.67762],[110.328968,18.677505],[110.329063,18.677423],[110.329188,18.677391],[110.329315,18.677416],[110.329415,18.677494],[110.329467,18.677606],[110.329458,18.677729],[110.329728,18.677744],[110.330375,18.677842],[110.330773,18.677883],[110.331247,18.677857],[110.331866,18.677717],[110.332582,18.677511],[110.333199,18.677338],[110.333875,18.677161],[110.336738,18.676305],[110.337475,18.676128],[110.338696,18.67581],[110.339878,18.675574],[110.340579,18.675627],[110.341371,18.675936],[110.342079,18.676036],[110.34222,18.676614],[110.343455,18.676409],[110.343962,18.676426],[110.344677,18.676492],[110.34527,18.67632],[110.34568,18.676129],[110.34648,18.676025],[110.346895,18.67598],[110.348362,18.675881],[110.348698,18.675951],[110.349287,18.676246],[110.349877,18.676287],[110.350574,18.676124],[110.350824,18.675939],[110.352123,18.677032],[110.352825,18.67645],[110.353484,18.67594],[110.354681,18.675132],[110.355835,18.676877],[110.356651,18.678177],[110.357166,18.678909],[110.358045,18.679438],[110.358968,18.679722],[110.359826,18.680251],[110.361108,18.680208]]}},{"type":"Feature","properties":{"dayId":4,"legId":"B-D4-drive","mode":"drive","label":"万宁神州半岛 → 陵水土福湾三正月","distanceKm":76.9,"durationMinutes":63,"durationHours":1.1,"routeLegs":[{"index":0,"distanceKm":76.9,"durationMinutes":63}],"source":"OSRM / OpenStreetMap, fetched 2026-08-12"},"geometry":{"type":"LineString","coordinates":[[110.361108,18.680208],[110.359826,18.680251],[110.358968,18.679722],[110.358045,18.679438],[110.357166,18.678909],[110.356651,18.678177],[110.355835,18.676877],[110.354681,18.675132],[110.353484,18.67594],[110.352825,18.67645],[110.352123,18.677032],[110.350824,18.675939],[110.350574,18.676124],[110.349877,18.676287],[110.349287,18.676246],[110.348698,18.675951],[110.348362,18.675881],[110.346895,18.67598],[110.34648,18.676025],[110.34568,18.676129],[110.34527,18.67632],[110.344677,18.676492],[110.343962,18.676426],[110.343455,18.676409],[110.34222,18.676614],[110.342079,18.676036],[110.341371,18.675936],[110.340579,18.675627],[110.339878,18.675574],[110.338696,18.67581],[110.337475,18.676128],[110.336738,18.676305],[110.333875,18.677161],[110.333199,18.677338],[110.332582,18.677511],[110.331866,18.677717],[110.331247,18.677857],[110.330773,18.677883],[110.330375,18.677842],[110.329728,18.677744],[110.329458,18.677729],[110.329373,18.67785],[110.329313,18.678101],[110.329164,18.678651],[110.329097,18.679422],[110.329095,18.680199],[110.329086,18.680583],[110.329009,18.680579],[110.328596,18.680558],[110.325806,18.680422],[110.325219,18.680255],[110.324639,18.679894],[110.324228,18.67937],[110.324024,18.678771],[110.324006,18.678055],[110.323977,18.677888],[110.323408,18.677252],[110.322459,18.676379],[110.321752,18.675736],[110.320394,18.674496],[110.320051,18.674201],[110.31982,18.674018],[110.319571,18.673866],[110.319319,18.673754],[110.319015,18.673642],[110.318723,18.67356],[110.317852,18.673369],[110.316891,18.67306],[110.315795,18.672623],[110.315478,18.672374],[110.315211,18.672025],[110.314892,18.671701],[110.314502,18.671501],[110.313917,18.671468],[110.313413,18.671425],[110.312595,18.671145],[110.312144,18.670975],[110.311879,18.670963],[110.311705,18.670995],[110.311437,18.671084],[110.311195,18.671218],[110.310826,18.671578],[110.310689,18.671925],[110.310647,18.672176],[110.310655,18.672433],[110.31074,18.672899],[110.31077,18.673048],[110.310859,18.673497],[110.310853,18.67371],[110.310784,18.673916],[110.310693,18.674059],[110.310658,18.674114],[110.310537,18.674226],[110.310392,18.67431],[110.310226,18.674346],[110.310049,18.674348],[110.309864,18.67431],[110.309575,18.674199],[110.308651,18.673807],[110.307953,18.673472],[110.307501,18.673243],[110.307017,18.673014],[110.306809,18.67291],[110.30662,18.672791],[110.306422,18.67261],[110.306244,18.672374],[110.305835,18.671622],[110.305667,18.671391],[110.305492,18.671237],[110.305314,18.671126],[110.3051,18.671043],[110.30457,18.67094],[110.304202,18.670877],[110.303966,18.670874],[110.30334,18.670996],[110.303068,18.671],[110.302731,18.670957],[110.302405,18.670893],[110.302145,18.670882],[110.301847,18.670939],[110.30123,18.671218],[110.301034,18.671251],[110.300827,18.671246],[110.30062,18.671183],[110.300382,18.671057],[110.300154,18.670938],[110.299922,18.670893],[110.299683,18.670944],[110.299505,18.671073],[110.299376,18.671272],[110.299232,18.671697],[110.299107,18.671924],[110.298931,18.672123],[110.298714,18.672266],[110.298456,18.672345],[110.298172,18.672359],[110.297929,18.672304],[110.297614,18.672171],[110.297425,18.67209],[110.296298,18.67175],[110.295799,18.671532],[110.294786,18.670854],[110.294028,18.670322],[110.293256,18.669554],[110.292718,18.668832],[110.292298,18.66867],[110.291374,18.668348],[110.291003,18.668309],[110.290633,18.668319],[110.290192,18.668424],[110.289386,18.66879],[110.288836,18.668911],[110.288306,18.669008],[110.287987,18.668938],[110.287639,18.668863],[110.287336,18.668875],[110.286965,18.668939],[110.286752,18.669092],[110.286505,18.669355],[110.28613,18.669895],[110.28571,18.670492],[110.285267,18.671024],[110.284753,18.671464],[110.284447,18.671707],[110.284201,18.671855],[110.283905,18.671958],[110.283301,18.672155],[110.283262,18.672168],[110.282399,18.67229],[110.281748,18.672292],[110.280917,18.672246],[110.280654,18.672178],[110.280571,18.672156],[110.280226,18.672067],[110.279392,18.671618],[110.279025,18.671316],[110.278786,18.671043],[110.278511,18.670921],[110.277845,18.67083],[110.277181,18.670782],[110.276489,18.670604],[110.276076,18.670422],[110.275868,18.670331],[110.274888,18.670087],[110.273822,18.669764],[110.273206,18.669608],[110.272711,18.669384],[110.272295,18.669098],[110.271968,18.668993],[110.271598,18.669018],[110.271308,18.669205],[110.271002,18.669392],[110.270208,18.669552],[110.269738,18.669648],[110.269219,18.669642],[110.268368,18.669526],[110.267955,18.669566],[110.267583,18.66959],[110.267035,18.669386],[110.266726,18.6694],[110.266128,18.669678],[110.265762,18.669892],[110.265244,18.669884],[110.264881,18.669839],[110.264301,18.669692],[110.263961,18.669562],[110.263606,18.669209],[110.263129,18.668932],[110.262597,18.668744],[110.261187,18.670517],[110.260986,18.670763],[110.260734,18.671011],[110.260474,18.671231],[110.26021,18.671424],[110.259886,18.671604],[110.259484,18.671779],[110.258992,18.671956],[110.258436,18.672208],[110.258321,18.67234],[110.25655,18.673227],[110.256252,18.673322],[110.255727,18.67358],[110.254761,18.674055],[110.254295,18.674288],[110.254132,18.674376],[110.254025,18.674482],[110.253979,18.674581],[110.253968,18.674697],[110.253996,18.674803],[110.254044,18.674873],[110.254104,18.674913],[110.254207,18.674943],[110.254292,18.674951],[110.254359,18.674953],[110.254456,18.67493],[110.254533,18.674871],[110.254584,18.67478],[110.254606,18.674665],[110.254587,18.674438],[110.25347,18.672511],[110.252569,18.671225],[110.251712,18.669999],[110.250856,18.668793],[110.249941,18.667452],[110.249643,18.66699],[110.249211,18.666218],[110.249126,18.666074],[110.248905,18.665699],[110.24861,18.665169],[110.248533,18.665028],[110.248142,18.664254],[110.24777,18.663492],[110.247651,18.663231],[110.247356,18.662418],[110.24701,18.661496],[110.246708,18.660631],[110.246332,18.659413],[110.245903,18.658081],[110.245723,18.657468],[110.24554,18.656883],[110.245076,18.655595],[110.244748,18.654502],[110.244346,18.65326],[110.244041,18.652348],[110.243476,18.651259],[110.243013,18.650493],[110.242536,18.64983],[110.242012,18.649213],[110.241532,18.648658],[110.241331,18.64848],[110.241095,18.648282],[110.240733,18.647996],[110.240242,18.647644],[110.239984,18.647465],[110.239085,18.646904],[110.237514,18.646186],[110.235803,18.645434],[110.233525,18.644263],[110.231395,18.642892],[110.231098,18.642681],[110.230071,18.641737],[110.2282,18.63996],[110.226919,18.638771],[110.226145,18.638038],[110.225017,18.637255],[110.223488,18.636215],[110.221302,18.635056],[110.218159,18.633792],[110.214616,18.632396],[110.213922,18.632113],[110.209829,18.630452],[110.208349,18.629856],[110.207379,18.629417],[110.205602,18.628668],[110.203463,18.627691],[110.201355,18.626654],[110.201274,18.626614],[110.199175,18.625483],[110.198547,18.625139],[110.197525,18.624573],[110.194786,18.622972],[110.193123,18.621996],[110.191932,18.621304],[110.19028,18.620312],[110.188677,18.61921],[110.187619,18.618416],[110.186668,18.617589],[110.185909,18.616905],[110.185149,18.616152],[110.184372,18.615327],[110.18363,18.614484],[110.183026,18.61376],[110.182458,18.61306],[110.181417,18.61178],[110.180728,18.610962],[110.180087,18.610154],[110.178569,18.608314],[110.17742,18.606874],[110.176959,18.606296],[110.176193,18.605297],[110.175893,18.604922],[110.1754,18.603919],[110.175218,18.603416],[110.17509,18.60285],[110.175005,18.602421],[110.174944,18.601798],[110.174971,18.601185],[110.175071,18.600474],[110.175411,18.599395],[110.175991,18.597826],[110.176187,18.597198],[110.17633,18.596567],[110.176519,18.595435],[110.176495,18.594349],[110.17633,18.593198],[110.1761,18.592522],[110.175948,18.592091],[110.175759,18.591666],[110.175477,18.591154],[110.175135,18.590581],[110.174177,18.589494],[110.173439,18.588918],[110.173048,18.588629],[110.172662,18.588381],[110.172207,18.588126],[110.172082,18.588056],[110.172025,18.588024],[110.171645,18.58784],[110.170336,18.58719],[110.168084,18.586093],[110.167422,18.585814],[110.167034,18.585676],[110.166588,18.585545],[110.166072,18.58542],[110.165435,18.585306],[110.164754,18.585242],[110.163443,18.585145],[110.162504,18.585077],[110.161822,18.584977],[110.161114,18.584805],[110.159934,18.584393],[110.158183,18.583591],[110.156416,18.582749],[110.154974,18.582027],[110.153534,18.581157],[110.151968,18.579876],[110.149319,18.576836],[110.148757,18.576174],[110.147254,18.574604],[110.145962,18.573327],[110.144927,18.572462],[110.144414,18.572054],[110.14353,18.571435],[110.142804,18.570964],[110.142015,18.570498],[110.141099,18.569978],[110.139412,18.569122],[110.135763,18.567298],[110.133213,18.566008],[110.131981,18.565347],[110.13133,18.565016],[110.129599,18.56414],[110.128628,18.563655],[110.127484,18.563077],[110.126921,18.562775],[110.125205,18.561909],[110.124446,18.561531],[110.120656,18.559601],[110.118836,18.558754],[110.117867,18.558365],[110.116573,18.557908],[110.115797,18.557674],[110.114685,18.557387],[110.113671,18.557169],[110.112794,18.557012],[110.111727,18.556865],[110.111048,18.556803],[110.110233,18.556752],[110.109454,18.556738],[110.10815,18.556749],[110.107511,18.556779],[110.107265,18.556796],[110.106441,18.556867],[110.105039,18.55701],[110.103506,18.557155],[110.103035,18.5572],[110.102411,18.557244],[110.101433,18.557271],[110.100335,18.557263],[110.099698,18.557239],[110.098791,18.557182],[110.097982,18.557102],[110.097241,18.557006],[110.0963,18.556846],[110.095398,18.556667],[110.094583,18.556461],[110.093982,18.55629],[110.093629,18.55618],[110.093138,18.556021],[110.092684,18.55586],[110.092242,18.555699],[110.091823,18.555538],[110.091307,18.555325],[110.0907,18.555053],[110.090308,18.554877],[110.089424,18.554461],[110.087228,18.553422],[110.082005,18.550958],[110.075983,18.548114],[110.075571,18.547917],[110.074189,18.547282],[110.072984,18.546753],[110.072223,18.54641],[110.071248,18.546016],[110.070415,18.545681],[110.069273,18.545255],[110.068091,18.544843],[110.066836,18.54442],[110.065291,18.543944],[110.064014,18.543576],[110.062966,18.543291],[110.061513,18.542934],[110.060765,18.542762],[110.059506,18.542484],[110.058889,18.54236],[110.057637,18.542117],[110.055433,18.541687],[110.052979,18.541193],[110.050392,18.54066],[110.047665,18.540133],[110.045818,18.539767],[110.045021,18.539582],[110.044411,18.539418],[110.043445,18.539105],[110.042761,18.53885],[110.042272,18.538647],[110.041949,18.538505],[110.041136,18.538133],[110.040512,18.537804],[110.039692,18.53734],[110.038377,18.536434],[110.037897,18.536076],[110.037569,18.53581],[110.037247,18.535539],[110.036731,18.535088],[110.036141,18.534527],[110.035363,18.533768],[110.034055,18.532476],[110.033745,18.532168],[110.030914,18.529384],[110.026573,18.525135],[110.024706,18.523322],[110.023959,18.522559],[110.022982,18.521636],[110.022533,18.5213],[110.022105,18.521023],[110.021752,18.520824],[110.021681,18.520792],[110.021183,18.520571],[110.020766,18.520418],[110.020376,18.520315],[110.020337,18.520305],[110.0199,18.520205],[110.019457,18.520122],[110.018553,18.520087],[110.018231,18.520097],[110.01792,18.520127],[110.01748,18.520183],[110.016738,18.520344],[110.015882,18.520559],[110.014281,18.520975],[110.012654,18.521337],[110.011616,18.52152],[110.011029,18.521606],[110.009767,18.521752],[110.008481,18.521841],[110.008098,18.521852],[110.007414,18.521876],[110.006832,18.521884],[110.005851,18.521864],[110.005086,18.521816],[110.00407,18.52173],[110.003831,18.521695],[110.003066,18.521605],[110.002526,18.521526],[110.002043,18.521445],[110.001494,18.521348],[110.001031,18.521245],[109.999985,18.521006],[109.999172,18.520818],[109.995864,18.519983],[109.995718,18.519946],[109.989929,18.518478],[109.987908,18.517978],[109.985966,18.517473],[109.98571,18.517409],[109.984324,18.517044],[109.981595,18.516319],[109.978854,18.515488],[109.973691,18.513565],[109.970561,18.512189],[109.97044,18.51214],[109.969977,18.511919],[109.967328,18.510733],[109.957618,18.506388],[109.955157,18.505235],[109.953096,18.504203],[109.951095,18.503069],[109.948315,18.501427],[109.945603,18.499695],[109.941727,18.496893],[109.938472,18.494135],[109.935253,18.491336],[109.928872,18.485699],[109.927344,18.484474],[109.927055,18.484242],[109.924328,18.482057],[109.921444,18.480128],[109.921241,18.479988],[109.91954,18.478817],[109.91767,18.477677],[109.914686,18.476015],[109.911592,18.474435],[109.908487,18.472801],[109.906916,18.471963],[109.905564,18.47112],[109.903974,18.47007],[109.902513,18.469048],[109.901148,18.467977],[109.899709,18.466793],[109.897434,18.464676],[109.88742,18.455129],[109.885058,18.453219],[109.884192,18.452639],[109.883795,18.452364],[109.880953,18.450625],[109.878827,18.449558],[109.876786,18.448611],[109.875285,18.448057],[109.873777,18.44752],[109.872499,18.447121],[109.870508,18.446588],[109.869978,18.446444],[109.868927,18.44615],[109.86734,18.445706],[109.866753,18.445527],[109.865234,18.445045],[109.863901,18.444564],[109.860506,18.443201],[109.858477,18.442262],[109.856521,18.441273],[109.854574,18.440189],[109.852193,18.438706],[109.850737,18.437791],[109.849901,18.437273],[109.849797,18.437202],[109.849553,18.437061],[109.848688,18.4365],[109.848579,18.436434],[109.847574,18.435749],[109.846771,18.43521],[109.844076,18.433499],[109.842907,18.432796],[109.841798,18.432193],[109.841547,18.432068],[109.840382,18.431497],[109.839218,18.430998],[109.836283,18.429805],[109.835721,18.42963],[109.835115,18.429456],[109.832059,18.428707],[109.830071,18.428322],[109.828326,18.427927],[109.827759,18.427807],[109.827266,18.427688],[109.826089,18.427376],[109.825629,18.427234],[109.823647,18.426595],[109.821779,18.425903],[109.821093,18.42564],[109.819747,18.425036],[109.816698,18.423586],[109.81378,18.422199],[109.813035,18.421824],[109.81096,18.420803],[109.810784,18.420721],[109.809339,18.420019],[109.807343,18.419052],[109.805085,18.417963],[109.804088,18.417466],[109.804012,18.417426],[109.80208,18.416549],[109.800665,18.416036],[109.798423,18.415444],[109.797404,18.415231],[109.796377,18.41507],[109.791222,18.414499],[109.790838,18.414493],[109.790483,18.414468],[109.789427,18.414376],[109.789167,18.414397],[109.788952,18.414433],[109.788711,18.41453],[109.788539,18.414659],[109.788329,18.414837],[109.788217,18.414873],[109.788116,18.414899],[109.788009,18.414901],[109.787893,18.414868],[109.787792,18.414795],[109.787729,18.414701],[109.787707,18.414639],[109.78768,18.414546],[109.787668,18.41439],[109.787669,18.413742],[109.787693,18.412771],[109.787696,18.412606],[109.787696,18.412487],[109.78768,18.412018],[109.787674,18.411771],[109.788015,18.411774],[109.790862,18.411795],[109.794047,18.411627],[109.795831,18.411466],[109.796327,18.411421],[109.796866,18.411344],[109.797272,18.411264],[109.797634,18.411175],[109.79798,18.411065],[109.79827,18.410953],[109.798605,18.410816],[109.798919,18.41065],[109.799214,18.410493],[109.79951,18.410306],[109.799769,18.410131],[109.799968,18.409981],[109.800174,18.409808],[109.800404,18.409588],[109.800647,18.409364],[109.800848,18.409205],[109.801061,18.409072],[109.801277,18.408958],[109.801472,18.408874],[109.801789,18.408772],[109.802221,18.408691],[109.802429,18.408656],[109.802883,18.408585],[109.803437,18.408484],[109.803905,18.408398],[109.804222,18.408303],[109.804478,18.408199],[109.804726,18.408062],[109.805007,18.40788],[109.806255,18.406835],[109.806418,18.406711],[109.806614,18.406584],[109.806953,18.406412],[109.807113,18.406354],[109.807025,18.406199],[109.80649,18.405332],[109.805592,18.403861],[109.805743,18.403802],[109.8064448,18.4031364]]}},{"type":"Feature","properties":{"dayId":5,"legId":"B-D5-walk","mode":"walk","label":"三正月 → 土福湾海岸 → 三正月","distanceKm":1.1,"durationMinutes":18,"durationHours":0.3,"routeLegs":[],"source":"Verified endpoints, connected by declared travel mode"},"geometry":{"type":"LineString","coordinates":[[109.8064448,18.4031364],[109.8078,18.3999],[109.8064448,18.4031364]]}},{"type":"Feature","properties":{"dayId":6,"legId":"B-D6-drive","mode":"drive","label":"土福湾 → 三亚国际免税城","distanceKm":15.1,"durationMinutes":19,"durationHours":0.3,"routeLegs":[{"index":0,"distanceKm":15.1,"durationMinutes":19}],"source":"OSRM / OpenStreetMap, fetched 2026-08-12"},"geometry":{"type":"LineString","coordinates":[[109.8064448,18.4031364],[109.805743,18.403802],[109.805592,18.403861],[109.80649,18.405332],[109.807025,18.406199],[109.807113,18.406354],[109.806953,18.406412],[109.806614,18.406584],[109.806418,18.406711],[109.806255,18.406835],[109.805007,18.40788],[109.804726,18.408062],[109.804478,18.408199],[109.804222,18.408303],[109.803905,18.408398],[109.803437,18.408484],[109.802883,18.408585],[109.802429,18.408656],[109.802221,18.408691],[109.801789,18.408772],[109.801472,18.408874],[109.801277,18.408958],[109.801061,18.409072],[109.800848,18.409205],[109.800647,18.409364],[109.800404,18.409588],[109.800174,18.409808],[109.799968,18.409981],[109.799769,18.410131],[109.79951,18.410306],[109.799214,18.410493],[109.798919,18.41065],[109.798605,18.410816],[109.79827,18.410953],[109.79798,18.411065],[109.797634,18.411175],[109.797272,18.411264],[109.796866,18.411344],[109.796327,18.411421],[109.795831,18.411466],[109.794047,18.411627],[109.790862,18.411795],[109.788015,18.411774],[109.787674,18.411771],[109.787395,18.411767],[109.786756,18.411773],[109.786226,18.411805],[109.785555,18.411892],[109.785172,18.411908],[109.784792,18.411907],[109.784426,18.411869],[109.784108,18.411808],[109.783774,18.411727],[109.783442,18.411609],[109.783268,18.411535],[109.783003,18.411383],[109.782704,18.411171],[109.782598,18.411068],[109.782385,18.410871],[109.782177,18.410639],[109.781954,18.410478],[109.78179,18.410216],[109.781622,18.409897],[109.781493,18.409532],[109.781434,18.409273],[109.781361,18.408904],[109.781175,18.407716],[109.781064,18.407195],[109.780947,18.406809],[109.780921,18.406721],[109.780788,18.406389],[109.780711,18.406192],[109.780528,18.405813],[109.78028,18.405351],[109.780046,18.404995],[109.779882,18.404806],[109.779463,18.404377],[109.779392,18.404309],[109.779347,18.404265],[109.779253,18.404175],[109.778812,18.403863],[109.77836,18.403577],[109.778017,18.403416],[109.777653,18.403267],[109.776944,18.402984],[109.776692,18.402901],[109.776371,18.402858],[109.775423,18.402801],[109.775012,18.402811],[109.774598,18.402845],[109.773765,18.402923],[109.772109,18.403076],[109.770762,18.403252],[109.770057,18.403319],[109.769652,18.403355],[109.769138,18.403368],[109.769026,18.403368],[109.768584,18.403378],[109.768006,18.403358],[109.767181,18.403313],[109.766306,18.403211],[109.765434,18.403092],[109.765425,18.403091],[109.764692,18.402948],[109.763954,18.402763],[109.763229,18.402546],[109.762509,18.402293],[109.762346,18.402237],[109.761778,18.402033],[109.761234,18.401788],[109.760243,18.401298],[109.760159,18.401264],[109.759121,18.400671],[109.758089,18.400072],[109.757984,18.399946],[109.757638,18.399907],[109.757454,18.399885],[109.757256,18.399873],[109.756996,18.399869],[109.756782,18.399874],[109.756587,18.399883],[109.756436,18.399896],[109.756271,18.399915],[109.756124,18.399938],[109.755875,18.399987],[109.755717,18.400025],[109.755538,18.400076],[109.755353,18.400134],[109.755191,18.400193],[109.755019,18.400261],[109.754846,18.400337],[109.754702,18.4004],[109.754514,18.400488],[109.754245,18.400608],[109.754108,18.400669],[109.753989,18.400715],[109.753832,18.400769],[109.753701,18.400809],[109.753549,18.40085],[109.753388,18.400888],[109.753258,18.400911],[109.753139,18.400929],[109.753063,18.400939],[109.752963,18.40095],[109.752818,18.400963],[109.752727,18.400967],[109.752576,18.400968],[109.752422,18.400963],[109.752263,18.400952],[109.752127,18.400938],[109.751995,18.40092],[109.751853,18.400896],[109.751756,18.400874],[109.751622,18.400842],[109.751515,18.400809],[109.751425,18.400778],[109.751209,18.400699],[109.750991,18.400613],[109.750792,18.400522],[109.750521,18.400398],[109.750039,18.400165],[109.749148,18.399698],[109.748457,18.399295],[109.747914,18.398971],[109.747504,18.398712],[109.74702,18.398387],[109.746236,18.397872],[109.745443,18.397341],[109.74502,18.397057],[109.74485,18.396944],[109.744699,18.396844],[109.744398,18.396649],[109.743923,18.396337],[109.743613,18.396126],[109.743363,18.395945],[109.743127,18.395766],[109.742899,18.395595],[109.742813,18.395524],[109.742734,18.395451],[109.742677,18.395387],[109.742621,18.395312],[109.742578,18.395248],[109.742532,18.395168],[109.742484,18.395053],[109.742454,18.394973],[109.742421,18.394863],[109.742404,18.394776],[109.74239,18.394675],[109.742385,18.394595],[109.742387,18.394471],[109.742399,18.394365],[109.742414,18.394297],[109.742457,18.394151],[109.742517,18.394002],[109.742626,18.393775],[109.742918,18.393212],[109.743251,18.39263],[109.743532,18.392205],[109.743851,18.391726],[109.744031,18.391456],[109.744234,18.391189],[109.744384,18.390995],[109.744549,18.390784],[109.744755,18.39054],[109.745192,18.390055],[109.745527,18.389701],[109.745851,18.389382],[109.746133,18.389117],[109.746468,18.388823],[109.746647,18.388677],[109.747099,18.388314],[109.747233,18.388208],[109.747448,18.388053],[109.748295,18.387463],[109.748482,18.387319],[109.748649,18.387188],[109.748773,18.387083],[109.748985,18.38689],[109.749167,18.386712],[109.749356,18.386509],[109.749626,18.386189],[109.749918,18.385797],[109.750056,18.385587],[109.750157,18.38542],[109.750279,18.385213],[109.750414,18.384947],[109.750548,18.384658],[109.750642,18.384435],[109.750796,18.383982],[109.750937,18.383643],[109.751047,18.38343],[109.751113,18.383319],[109.751185,18.383203],[109.75124,18.383122],[109.751314,18.383015],[109.751377,18.382931],[109.751455,18.382838],[109.751543,18.38273],[109.751647,18.382618],[109.751719,18.382545],[109.751977,18.382307],[109.752161,18.38214],[109.751869,18.3819],[109.751198,18.38135],[109.750826,18.381049],[109.750285,18.38064],[109.749972,18.380362],[109.749602,18.380021],[109.749102,18.379533],[109.74876,18.379165],[109.748206,18.378552],[109.748187,18.378531],[109.747292,18.377396],[109.747163,18.377232],[109.747098,18.377132],[109.746178,18.375714],[109.745665,18.374764],[109.745417,18.374316],[109.745327,18.374152],[109.744995,18.373555],[109.74464,18.372917],[109.741555,18.367371],[109.740692,18.365767],[109.740518,18.365411],[109.739935,18.364219],[109.738543,18.361291],[109.738368,18.360922],[109.738202,18.360554],[109.737907,18.359901],[109.73748,18.358961],[109.736985,18.357692],[109.736949,18.3576],[109.736822,18.357261],[109.736767,18.357114],[109.736727,18.357005],[109.736507,18.356453],[109.736506,18.356449],[109.736473,18.356367],[109.736436,18.356275],[109.736254,18.355816],[109.735848,18.354797],[109.735784,18.354635],[109.735748,18.354544],[109.735737,18.354514],[109.735731,18.354497],[109.735365,18.353499],[109.735129,18.352723],[109.734809,18.35176],[109.73494,18.351722],[109.73526,18.352686],[109.735496,18.35346],[109.735664,18.353918],[109.735877,18.3545],[109.735964,18.354723],[109.736139,18.355166],[109.736183,18.355294],[109.736326,18.355712],[109.736491,18.356137],[109.736787,18.355968],[109.7487,18.3548]]}},{"type":"Feature","properties":{"dayId":6,"legId":"B-D6-drive-return","mode":"drive","label":"三亚国际免税城 → 土福湾","distanceKm":14,"durationMinutes":18,"durationHours":0.3,"routeLegs":[{"index":0,"distanceKm":14,"durationMinutes":18}],"source":"OSRM / OpenStreetMap, fetched 2026-08-12"},"geometry":{"type":"LineString","coordinates":[[109.7487,18.3548],[109.736787,18.355968],[109.736491,18.356137],[109.736541,18.35626],[109.736567,18.356327],[109.736691,18.356639],[109.736764,18.356787],[109.736844,18.356962],[109.736886,18.357066],[109.736914,18.357134],[109.736939,18.357196],[109.737023,18.357414],[109.737079,18.357561],[109.737104,18.357625],[109.737151,18.357749],[109.737228,18.357949],[109.737432,18.358491],[109.737602,18.358891],[109.737957,18.359664],[109.738081,18.359957],[109.738223,18.360291],[109.738486,18.360873],[109.738661,18.361238],[109.738971,18.361883],[109.73902,18.361985],[109.739229,18.362419],[109.739399,18.362778],[109.740043,18.364137],[109.740258,18.364583],[109.740622,18.365341],[109.740631,18.36536],[109.74092,18.365943],[109.741044,18.366193],[109.741059,18.366223],[109.741517,18.367049],[109.741951,18.367837],[109.741991,18.36791],[109.742368,18.368595],[109.742739,18.36924],[109.742837,18.369411],[109.743182,18.36998],[109.743233,18.370064],[109.743711,18.370923],[109.744136,18.371688],[109.744572,18.372471],[109.744603,18.37253],[109.744668,18.372653],[109.744721,18.372744],[109.744738,18.37277],[109.74482,18.372943],[109.74492,18.373129],[109.745048,18.37336],[109.745445,18.3741],[109.74554,18.374268],[109.746293,18.375633],[109.746385,18.375802],[109.746542,18.37609],[109.746783,18.376458],[109.747121,18.376974],[109.747202,18.377076],[109.747383,18.377303],[109.748305,18.378464],[109.748334,18.3785],[109.748894,18.379119],[109.749232,18.379475],[109.749708,18.379941],[109.750046,18.380254],[109.750463,18.380625],[109.750762,18.380892],[109.751047,18.381135],[109.751953,18.381876],[109.752211,18.38209],[109.752262,18.382132],[109.752211,18.382181],[109.751954,18.38242],[109.751761,18.382601],[109.751715,18.382647],[109.751632,18.382737],[109.751531,18.382848],[109.751443,18.382955],[109.751366,18.383052],[109.751305,18.383138],[109.751235,18.383238],[109.751166,18.38335],[109.751107,18.383452],[109.750993,18.383681],[109.750883,18.383942],[109.750718,18.384398],[109.750627,18.384617],[109.750554,18.38479],[109.750463,18.384981],[109.750362,18.385171],[109.750267,18.385353],[109.75017,18.385526],[109.750065,18.38569],[109.749967,18.385839],[109.749687,18.386214],[109.749358,18.386611],[109.749129,18.386841],[109.748919,18.387034],[109.748707,18.387222],[109.748517,18.387374],[109.748289,18.387542],[109.748102,18.387671],[109.747466,18.388121],[109.747279,18.388258],[109.747141,18.38836],[109.746583,18.388811],[109.746398,18.388967],[109.746191,18.389151],[109.745943,18.389386],[109.745765,18.38956],[109.745272,18.390065],[109.744871,18.390505],[109.744612,18.390816],[109.744086,18.391493],[109.7435,18.392368],[109.743321,18.392642],[109.743041,18.393114],[109.742866,18.393447],[109.742732,18.393711],[109.742624,18.393934],[109.742573,18.39405],[109.74254,18.394141],[109.742514,18.394226],[109.742493,18.394312],[109.742473,18.394443],[109.742469,18.394558],[109.742475,18.394683],[109.742489,18.394784],[109.742514,18.394895],[109.742548,18.395008],[109.742592,18.395108],[109.742651,18.395213],[109.742698,18.395286],[109.742759,18.395364],[109.742831,18.39544],[109.742934,18.395533],[109.743146,18.395695],[109.743563,18.396011],[109.744189,18.396441],[109.74461,18.396718],[109.745029,18.396993],[109.745362,18.397213],[109.746017,18.397653],[109.746458,18.397945],[109.747368,18.398543],[109.747889,18.398882],[109.748244,18.399102],[109.748996,18.399537],[109.74942,18.399772],[109.749773,18.399959],[109.749954,18.400051],[109.750369,18.400258],[109.750893,18.4005],[109.751204,18.400631],[109.751423,18.400715],[109.751565,18.400761],[109.751759,18.400812],[109.751918,18.400846],[109.752095,18.400872],[109.752283,18.400895],[109.752469,18.400904],[109.752655,18.400904],[109.75284,18.400895],[109.753025,18.400878],[109.753209,18.400852],[109.753331,18.400834],[109.753508,18.400797],[109.753677,18.400752],[109.753829,18.400704],[109.754098,18.4006],[109.754606,18.400372],[109.754964,18.400215],[109.755121,18.40015],[109.755257,18.400098],[109.7554,18.400048],[109.755596,18.399992],[109.755857,18.399927],[109.756153,18.399866],[109.756474,18.399823],[109.756718,18.399808],[109.756952,18.399802],[109.757256,18.399805],[109.757513,18.39983],[109.757769,18.399867],[109.757984,18.399946],[109.758179,18.4],[109.759166,18.400587],[109.760205,18.401181],[109.760532,18.401341],[109.761277,18.401705],[109.761809,18.401941],[109.762379,18.40215],[109.762538,18.402211],[109.763261,18.402459],[109.763983,18.402676],[109.764713,18.402856],[109.765443,18.402997],[109.766326,18.40312],[109.767196,18.403197],[109.768062,18.403235],[109.768556,18.403265],[109.769041,18.403267],[109.769158,18.403262],[109.769627,18.403239],[109.769985,18.403198],[109.770684,18.403132],[109.772099,18.402987],[109.773778,18.402828],[109.774595,18.40275],[109.775026,18.402721],[109.775425,18.402715],[109.776391,18.402759],[109.776725,18.402811],[109.776994,18.402898],[109.777705,18.403182],[109.777945,18.403282],[109.778082,18.403339],[109.778402,18.403505],[109.778875,18.403785],[109.779315,18.40413],[109.779425,18.404226],[109.779536,18.40432],[109.779988,18.404772],[109.78014,18.404962],[109.780375,18.405317],[109.780627,18.405756],[109.780817,18.406161],[109.780891,18.406348],[109.781007,18.406669],[109.781167,18.407183],[109.781276,18.407708],[109.781475,18.408887],[109.781545,18.409245],[109.781605,18.4095],[109.781737,18.40986],[109.781893,18.410162],[109.782044,18.410418],[109.782177,18.410639],[109.782385,18.410871],[109.782598,18.411068],[109.782704,18.411171],[109.783003,18.411383],[109.783268,18.411535],[109.783442,18.411609],[109.783774,18.411727],[109.784108,18.411808],[109.784426,18.411869],[109.784792,18.411907],[109.785172,18.411908],[109.785555,18.411892],[109.786226,18.411805],[109.786756,18.411773],[109.787395,18.411767],[109.787674,18.411771],[109.788015,18.411774],[109.790862,18.411795],[109.794047,18.411627],[109.795831,18.411466],[109.796327,18.411421],[109.796866,18.411344],[109.797272,18.411264],[109.797634,18.411175],[109.79798,18.411065],[109.79827,18.410953],[109.798605,18.410816],[109.798919,18.41065],[109.799214,18.410493],[109.79951,18.410306],[109.799769,18.410131],[109.799968,18.409981],[109.800174,18.409808],[109.800404,18.409588],[109.800647,18.409364],[109.800848,18.409205],[109.801061,18.409072],[109.801277,18.408958],[109.801472,18.408874],[109.801789,18.408772],[109.802221,18.408691],[109.802429,18.408656],[109.802883,18.408585],[109.803437,18.408484],[109.803905,18.408398],[109.804222,18.408303],[109.804478,18.408199],[109.804726,18.408062],[109.805007,18.40788],[109.806255,18.406835],[109.806418,18.406711],[109.806614,18.406584],[109.806953,18.406412],[109.807113,18.406354],[109.807025,18.406199],[109.80649,18.405332],[109.805592,18.403861],[109.805743,18.403802],[109.8064448,18.4031364]]}},{"type":"Feature","properties":{"dayId":7,"legId":"B-D7-drive","mode":"drive","label":"土福湾 → 三亚凤凰机场","distanceKm":51,"durationMinutes":39,"durationHours":0.7,"routeLegs":[{"index":0,"distanceKm":51,"durationMinutes":39}],"source":"OSRM / OpenStreetMap, fetched 2026-08-12"},"geometry":{"type":"LineString","coordinates":[[109.8064448,18.4031364],[109.805743,18.403802],[109.805592,18.403861],[109.80649,18.405332],[109.807025,18.406199],[109.807113,18.406354],[109.806953,18.406412],[109.806614,18.406584],[109.806418,18.406711],[109.806255,18.406835],[109.805007,18.40788],[109.804726,18.408062],[109.804478,18.408199],[109.804222,18.408303],[109.803905,18.408398],[109.803437,18.408484],[109.802883,18.408585],[109.802429,18.408656],[109.802221,18.408691],[109.801789,18.408772],[109.801472,18.408874],[109.801277,18.408958],[109.801061,18.409072],[109.800848,18.409205],[109.800647,18.409364],[109.800404,18.409588],[109.800174,18.409808],[109.799968,18.409981],[109.799769,18.410131],[109.79951,18.410306],[109.799214,18.410493],[109.798919,18.41065],[109.798605,18.410816],[109.79827,18.410953],[109.79798,18.411065],[109.797634,18.411175],[109.797272,18.411264],[109.796866,18.411344],[109.796327,18.411421],[109.795831,18.411466],[109.794047,18.411627],[109.790862,18.411795],[109.788015,18.411774],[109.787674,18.411771],[109.78768,18.412018],[109.787696,18.412487],[109.787696,18.412606],[109.787693,18.412771],[109.787669,18.413742],[109.787668,18.41439],[109.78768,18.414546],[109.787707,18.414639],[109.787729,18.414701],[109.787792,18.414795],[109.787893,18.414868],[109.788009,18.414901],[109.788116,18.414899],[109.788217,18.414873],[109.788305,18.414797],[109.788373,18.414736],[109.788417,18.414644],[109.788427,18.41455],[109.788416,18.414463],[109.788376,18.414375],[109.788307,18.414301],[109.78822,18.41425],[109.788065,18.414206],[109.787267,18.414119],[109.786564,18.414003],[109.78608,18.413948],[109.785731,18.413884],[109.784105,18.413686],[109.782311,18.413388],[109.779545,18.412838],[109.777688,18.412314],[109.777255,18.412191],[109.775564,18.411708],[109.774279,18.41129],[109.773161,18.410843],[109.768484,18.408871],[109.763607,18.406716],[109.759498,18.404884],[109.754852,18.402862],[109.754631,18.402765],[109.753521,18.40227],[109.752351,18.401747],[109.751377,18.401257],[109.750421,18.400752],[109.748379,18.399585],[109.746342,18.398346],[109.744304,18.39697],[109.743059,18.396111],[109.739308,18.393474],[109.737676,18.392381],[109.737487,18.392249],[109.735388,18.39079],[109.733681,18.38958],[109.732506,18.388699],[109.731993,18.388315],[109.731405,18.387873],[109.730265,18.38697],[109.729152,18.386063],[109.728272,18.385284],[109.725438,18.382806],[109.724818,18.382257],[109.724026,18.381556],[109.722627,18.380294],[109.71987,18.37787],[109.717127,18.375428],[109.715502,18.37396],[109.714445,18.372889],[109.713944,18.372344],[109.713466,18.371781],[109.712697,18.370805],[109.712,18.369789],[109.711299,18.368636],[109.71062,18.367454],[109.703371,18.351985],[109.701142,18.347415],[109.698408,18.342941],[109.695862,18.339667],[109.692842,18.336406],[109.689952,18.33375],[109.686932,18.331065],[109.681749,18.326252],[109.679671,18.324442],[109.679399,18.324205],[109.678346,18.323526],[109.677124,18.322884],[109.675871,18.322392],[109.674483,18.321997],[109.673516,18.321797],[109.672416,18.321668],[109.671596,18.32164],[109.67068,18.321639],[109.669821,18.321715],[109.668897,18.321853],[109.667709,18.322129],[109.666556,18.322489],[109.665717,18.32283],[109.664879,18.323256],[109.663133,18.324178],[109.660722,18.325515],[109.654202,18.329199],[109.652578,18.330085],[109.651333,18.33056],[109.650228,18.330917],[109.649037,18.331053],[109.648061,18.331093],[109.646892,18.331042],[109.645411,18.330723],[109.644129,18.330362],[109.635154,18.327789],[109.632819,18.326861],[109.631005,18.325963],[109.63033,18.325611],[109.629759,18.325296],[109.629177,18.32491],[109.628567,18.324534],[109.627722,18.324049],[109.626818,18.323555],[109.626231,18.323276],[109.625544,18.323012],[109.624817,18.3228],[109.624396,18.322709],[109.62391,18.322619],[109.623485,18.32256],[109.623007,18.322519],[109.622608,18.322501],[109.622175,18.322504],[109.621705,18.322489],[109.621199,18.322523],[109.620602,18.322623],[109.620071,18.322747],[109.619758,18.322845],[109.619391,18.322954],[109.61813,18.323406],[109.616892,18.323912],[109.615977,18.324282],[109.61458,18.324816],[109.614104,18.324976],[109.61385,18.325068],[109.613241,18.325273],[109.612337,18.325568],[109.611719,18.325734],[109.610967,18.325898],[109.609586,18.326092],[109.608705,18.32608],[109.608032,18.326059],[109.607251,18.325978],[109.606296,18.325798],[109.604609,18.325382],[109.602615,18.324848],[109.600834,18.324305],[109.598628,18.323584],[109.597741,18.323254],[109.596528,18.322799],[109.595122,18.322253],[109.593726,18.321783],[109.592692,18.321426],[109.591504,18.321103],[109.590808,18.320962],[109.590337,18.320898],[109.589451,18.320774],[109.587481,18.320581],[109.584535,18.320345],[109.580907,18.320111],[109.580212,18.320056],[109.579478,18.319996],[109.578793,18.319945],[109.578096,18.319891],[109.575879,18.319722],[109.5747,18.319628],[109.573514,18.319528],[109.572309,18.319465],[109.571427,18.319447],[109.570299,18.319498],[109.569675,18.319555],[109.568736,18.319687],[109.568021,18.319838],[109.566855,18.320152],[109.565558,18.320513],[109.564414,18.320838],[109.56368,18.321007],[109.56277,18.321184],[109.562003,18.321288],[109.560821,18.321392],[109.560186,18.321395],[109.559175,18.321349],[109.558562,18.321309],[109.557657,18.321227],[109.556872,18.321092],[109.5563,18.320963],[109.555578,18.32077],[109.554732,18.320462],[109.553713,18.320112],[109.552379,18.319565],[109.551203,18.319132],[109.549973,18.318639],[109.548879,18.318179],[109.547207,18.317611],[109.54585,18.317203],[109.544509,18.316941],[109.543519,18.316778],[109.543059,18.316713],[109.542669,18.316651],[109.541364,18.316548],[109.539405,18.316412],[109.537472,18.316284],[109.536183,18.31619],[109.532724,18.31591],[109.532188,18.315864],[109.531645,18.315823],[109.5306,18.31573],[109.530159,18.315691],[109.528906,18.315629],[109.52883,18.315625],[109.528264,18.315612],[109.527917,18.315616],[109.527047,18.315728],[109.526135,18.315843],[109.525826,18.3159],[109.525547,18.316001],[109.525405,18.316117],[109.525295,18.31625],[109.525262,18.31641],[109.525259,18.316577],[109.525302,18.316703],[109.525375,18.316817],[109.525471,18.316911],[109.525624,18.316974],[109.525809,18.317002],[109.526045,18.316943],[109.526197,18.316839],[109.526317,18.316678],[109.52639,18.316478],[109.526485,18.315957],[109.526522,18.315401],[109.526559,18.314429],[109.526569,18.314176],[109.526578,18.313938],[109.52662,18.312816],[109.526819,18.307555],[109.526825,18.307425],[109.526919,18.306096],[109.526968,18.305085],[109.527057,18.303445],[109.52708,18.303015],[109.527068,18.300955],[109.527127,18.300418],[109.52721,18.299953],[109.527239,18.299776],[109.526556,18.299553],[109.52328,18.298483],[109.521901,18.298033],[109.521213,18.297808],[109.52021,18.297481],[109.519057,18.297104],[109.513949,18.295237],[109.513514,18.295076],[109.512167,18.29452],[109.511717,18.294334],[109.505722,18.29186],[109.505643,18.291828],[109.505332,18.291699],[109.505173,18.291626],[109.504757,18.291434],[109.503736,18.290856],[109.50349,18.290705],[109.5034,18.290638],[109.502751,18.290126],[109.502439,18.289857],[109.50005,18.287792],[109.499749,18.287552],[109.499612,18.287442],[109.499444,18.287641],[109.49934,18.287756],[109.499191,18.287918],[109.499131,18.287984],[109.498737,18.288337],[109.49835,18.288641],[109.498097,18.28881],[109.497879,18.288934],[109.497555,18.289043],[109.497219,18.289126],[109.49678,18.289193],[109.496325,18.28922],[109.495482,18.289226],[109.495331,18.289227],[109.494746,18.289236],[109.493272,18.289238],[109.488574,18.289329],[109.487383,18.28935],[109.486036,18.289374],[109.484928,18.289403],[109.484742,18.289408],[109.484657,18.28941],[109.484619,18.289411],[109.48453,18.289413],[109.483179,18.289459],[109.482181,18.289468],[109.478575,18.289519],[109.477769,18.289534],[109.477155,18.289546],[109.476913,18.289565],[109.476696,18.289591],[109.476281,18.289663],[109.475854,18.289757],[109.475268,18.289906],[109.474518,18.290151],[109.473971,18.290373],[109.473751,18.290466],[109.473232,18.290725],[109.472643,18.291074],[109.470527,18.292728],[109.465966,18.295993],[109.465459,18.296326],[109.464786,18.29671],[109.464435,18.296872],[109.464083,18.297035],[109.463718,18.297181],[109.46334,18.297314],[109.462958,18.297413],[109.462573,18.297508],[109.462054,18.297613],[109.461682,18.29767],[109.461317,18.297718],[109.456191,18.298023],[109.455888,18.298061],[109.45557,18.2981],[109.455379,18.298134],[109.455201,18.298163],[109.454796,18.29826],[109.454556,18.298299],[109.454307,18.298368],[109.453867,18.298539],[109.453441,18.29874],[109.452647,18.299177],[109.451679,18.299758],[109.451056,18.300107],[109.450518,18.300346],[109.449517,18.300696],[109.448887,18.300917],[109.448797,18.300949],[109.448759,18.300962],[109.448538,18.30104],[109.448053,18.301178],[109.447526,18.301279],[109.445285,18.301558],[109.44387,18.301734],[109.443666,18.301751],[109.443082,18.3018],[109.441961,18.301895],[109.439225,18.302119],[109.438922,18.302144],[109.438215,18.302217],[109.438046,18.302234],[109.437921,18.302247],[109.437826,18.302257],[109.437327,18.302252],[109.436984,18.302217],[109.43494,18.301804],[109.433362,18.301485],[109.432339,18.301273],[109.431377,18.301073],[109.43114,18.301024],[109.430953,18.30099],[109.429799,18.300782],[109.428122,18.30053],[109.427168,18.300448],[109.426272,18.300391],[109.424467,18.300344],[109.423326,18.300336],[109.422249,18.300336],[109.421843,18.300348],[109.420377,18.300359],[109.419498,18.300383],[109.416968,18.300406],[109.416891,18.300406],[109.414282,18.300459],[109.4125351,18.3051519]]}},{"type":"Feature","properties":{"dayId":7,"legId":"B-D7-flight","mode":"flight","label":"三亚凤凰 → 武汉天河","distanceKm":null,"durationMinutes":null,"durationHours":null,"routeLegs":[],"source":"Verified endpoints, connected by declared travel mode"},"geometry":{"type":"LineString","coordinates":[[109.4125351,18.3051519],[114.2171149,30.7756632]]}}]}
